{
"type": "FeatureCollection",
"name": "bygninger",
"xy_coordinate_resolution": 1e-07,
"features": [
{"type":"Feature","properties":{"fid":1,"id":"m469","adresse":"Storgata 7","matrikkel":"537, 538, 539","lopenr_1901":"469","lopenr_1878":"753","gnr_bnr":"66/139","navn":"Wielgården"},"geometry":{"type":"Polygon","coordinates":[[[11.3879135,59.1225896],[11.3874172,59.1222231],[11.387393,59.1220274],[11.3878348,59.1220212],[11.3879952,59.1221548],[11.3878741,59.1221874],[11.3878136,59.1221439],[11.3876593,59.122147],[11.3876623,59.1222215],[11.3880436,59.1224793],[11.3881283,59.1224607],[11.388089,59.1224343],[11.3882009,59.1223939],[11.3883099,59.1224591],[11.3879135,59.1225896]]]}},
{"type":"Feature","properties":{"fid":2,"id":"m470","adresse":null,"matrikkel":null,"lopenr_1901":"470","lopenr_1878":null,"gnr_bnr":null,"navn":null},"geometry":{"type":"Polygon","coordinates":[[[11.3871978,59.1226416],[11.3865268,59.1226775],[11.3865144,59.1223681],[11.3871857,59.1222681],[11.3871978,59.1226416]]]}},
{"type":"Feature","properties":{"fid":3,"id":"m468","adresse":null,"matrikkel":null,"lopenr_1901":"468","lopenr_1878":null,"gnr_bnr":null,"navn":null},"geometry":{"type":"Polygon","coordinates":[[[11.3871562,59.1220051],[11.3871857,59.1222681],[11.3865144,59.1223681],[11.3865186,59.1224739],[11.3862787,59.1224881],[11.3862485,59.1221697],[11.3871562,59.1220051]]]}},
{"type":"Feature","properties":{"fid":4,"id":"m396","adresse":null,"matrikkel":null,"lopenr_1901":"396","lopenr_1878":null,"gnr_bnr":null,"navn":null},"geometry":{"type":"Polygon","coordinates":[[[11.3857976,59.1222458],[11.3862485,59.1221697],[11.3862818,59.1225409],[11.385955,59.1225657],[11.3859338,59.1223421],[11.3858279,59.1223498],[11.3857976,59.1222458]]]}},
{"type":"Feature","properties":{"fid":5,"id":"m377","adresse":null,"matrikkel":null,"lopenr_1901":"377","lopenr_1878":null,"gnr_bnr":null,"navn":null},"geometry":{"type":"Polygon","coordinates":[[[11.386197,59.1217225],[11.3861426,59.1213575],[11.3867689,59.1214103],[11.386775,59.1214538],[11.3870049,59.1214445],[11.3870261,59.1216914],[11.386197,59.1217225]]]}},
{"type":"Feature","properties":{"fid":6,"id":"m378","adresse":null,"matrikkel":null,"lopenr_1901":"378","lopenr_1878":null,"gnr_bnr":null,"navn":null},"geometry":{"type":"Polygon","coordinates":[[[11.3862273,59.122089],[11.3861032,59.1218017],[11.3865881,59.1217869],[11.3866305,59.1218048],[11.3866365,59.1220086],[11.3866154,59.1220226],[11.3862273,59.122089]]]}},
{"type":"Feature","properties":{"fid":7,"id":"m397","adresse":null,"matrikkel":null,"lopenr_1901":"397","lopenr_1878":null,"gnr_bnr":null,"navn":null},"geometry":{"type":"Polygon","coordinates":[[[11.385905,59.122146],[11.3857462,59.1218296],[11.3860987,59.1217881],[11.3861032,59.1218017],[11.3862273,59.122089],[11.385905,59.122146]]]}},
{"type":"Feature","properties":{"fid":8,"id":"m471","adresse":null,"matrikkel":null,"lopenr_1901":"471","lopenr_1878":null,"gnr_bnr":null,"navn":null},"geometry":{"type":"Polygon","coordinates":[[[11.3874125,59.1225995],[11.3876559,59.1225678],[11.3880107,59.1228237],[11.3874564,59.1229441],[11.3874125,59.1225995]]]}},
{"type":"Feature","properties":{"fid":9,"id":"m472","adresse":null,"matrikkel":null,"lopenr_1901":"472","lopenr_1878":null,"gnr_bnr":null,"navn":null},"geometry":{"type":"Polygon","coordinates":[[[11.3865796,59.1231578],[11.3865356,59.1227936],[11.3871749,59.1227605],[11.3872248,59.1227755],[11.3872629,59.1231337],[11.3865796,59.1231578]]]}},
{"type":"Feature","properties":{"fid":10,"id":"m473","adresse":null,"matrikkel":null,"lopenr_1901":"473","lopenr_1878":null,"gnr_bnr":null,"navn":null},"geometry":{"type":"Polygon","coordinates":[[[11.3864593,59.1231638],[11.3865796,59.1231578],[11.3872629,59.1231337],[11.3872687,59.123203],[11.3872277,59.1232361],[11.3864535,59.1232406],[11.3864593,59.1231638]]]}},
{"type":"Feature","properties":{"fid":11,"id":"m455","adresse":null,"matrikkel":null,"lopenr_1901":"455","lopenr_1878":null,"gnr_bnr":null,"navn":null},"geometry":{"type":"Polygon","coordinates":[[[11.3861103,59.1231383],[11.3860429,59.1228899],[11.3860378,59.1228869],[11.3860202,59.1228764],[11.3860055,59.1228651],[11.3860055,59.1228467],[11.3860202,59.122832],[11.3860444,59.1228184],[11.3860781,59.1228132],[11.3860971,59.1228181],[11.3861103,59.1228226],[11.3863684,59.1228071],[11.3864505,59.1231006],[11.3861103,59.1231383]]]}},
{"type":"Feature","properties":{"fid":12,"id":"m475","adresse":null,"matrikkel":null,"lopenr_1901":"475","lopenr_1878":null,"gnr_bnr":null,"navn":null},"geometry":{"type":"Polygon","coordinates":[[[11.3873157,59.1233546],[11.3873157,59.1234585],[11.3869036,59.123463],[11.3869066,59.123557],[11.386628,59.1235435],[11.3866602,59.1234517],[11.3866397,59.1233742],[11.3870415,59.1233561],[11.3873157,59.1233546]]]}},
{"type":"Feature","properties":{"fid":13,"id":"m389","adresse":null,"matrikkel":null,"lopenr_1901":"389","lopenr_1878":null,"gnr_bnr":null,"navn":null},"geometry":{"type":"Polygon","coordinates":[[[11.3863889,59.1235394],[11.3863684,59.1233828],[11.3866397,59.1233742],[11.3866602,59.1234517],[11.386628,59.1235435],[11.3863889,59.1235394]]]}},
{"type":"Feature","properties":{"fid":14,"id":"m476","adresse":null,"matrikkel":null,"lopenr_1901":"476","lopenr_1878":null,"gnr_bnr":null,"navn":null},"geometry":{"type":"Polygon","coordinates":[[[11.3863889,59.1235394],[11.386628,59.1235435],[11.3869066,59.123557],[11.3869036,59.123463],[11.3873157,59.1234585],[11.3873347,59.1238133],[11.3870077,59.1238178],[11.3863611,59.1237139],[11.3863889,59.1235394]]]}},
{"type":"Feature","properties":{"fid":15,"id":"m563","adresse":null,"matrikkel":null,"lopenr_1901":"563","lopenr_1878":null,"gnr_bnr":null,"navn":null},"geometry":{"type":"Polygon","coordinates":[[[11.3879135,59.1225896],[11.3883099,59.1224591],[11.3883912,59.1224399],[11.3889162,59.1227545],[11.3884352,59.1229426],[11.3883033,59.1228643],[11.3879135,59.1225896]]]}},
{"type":"Feature","properties":{"fid":16,"id":"m474","adresse":null,"matrikkel":null,"lopenr_1901":"474","lopenr_1878":null,"gnr_bnr":null,"navn":null},"geometry":{"type":"Polygon","coordinates":[[[11.3874564,59.1229441],[11.3880107,59.1228237],[11.388271,59.1230133],[11.3875701,59.1232165],[11.3874909,59.1232075],[11.3874564,59.1229441]]]}},
{"type":"Feature","properties":{"fid":17,"id":"m565","adresse":null,"matrikkel":null,"lopenr_1901":"565","lopenr_1878":null,"gnr_bnr":null,"navn":null},"geometry":{"type":"Polygon","coordinates":[[[11.3885071,59.1229938],[11.3890291,59.1227891],[11.3893986,59.1229336],[11.3887388,59.1231849],[11.3885071,59.1229938]]]}},
{"type":"Feature","properties":{"fid":18,"id":"m566","adresse":null,"matrikkel":null,"lopenr_1901":"566","lopenr_1878":null,"gnr_bnr":null,"navn":null},"geometry":{"type":"Polygon","coordinates":[[[11.3887388,59.1231849],[11.3893986,59.1229336],[11.3897945,59.1230766],[11.3898913,59.1231684],[11.3889704,59.123367],[11.3887388,59.1231849]]]}},
{"type":"Feature","properties":{"fid":19,"id":"m657","adresse":null,"matrikkel":null,"lopenr_1901":"657","lopenr_1878":null,"gnr_bnr":null,"navn":null},"geometry":{"type":"Polygon","coordinates":[[[11.3903371,59.1229697],[11.3905424,59.1230209],[11.3904602,59.1230991],[11.3902608,59.1230389],[11.3903371,59.1229697]]]}},
{"type":"Feature","properties":{"fid":20,"id":"m561","adresse":null,"matrikkel":null,"lopenr_1901":"561","lopenr_1878":null,"gnr_bnr":null,"navn":null},"geometry":{"type":"Polygon","coordinates":[[[11.3882197,59.1233926],[11.3879557,59.1231744],[11.3883194,59.1230675],[11.3885951,59.1232963],[11.3882197,59.1233926]]]}},
{"type":"Feature","properties":{"fid":21,"id":"m562","adresse":null,"matrikkel":null,"lopenr_1901":"562","lopenr_1878":null,"gnr_bnr":null,"navn":null},"geometry":{"type":"Polygon","coordinates":[[[11.3879557,59.1231744],[11.3882197,59.1233926],[11.3878062,59.123513],[11.387771,59.1233926],[11.387551,59.1233986],[11.3875246,59.1233038],[11.3875481,59.1232827],[11.3879557,59.1231744]]]}},
{"type":"Feature","properties":{"fid":22,"id":"m477","adresse":null,"matrikkel":null,"lopenr_1901":"477","lopenr_1878":null,"gnr_bnr":null,"navn":null},"geometry":{"type":"Polygon","coordinates":[[[11.387551,59.1233986],[11.387771,59.1233926],[11.3878062,59.123513],[11.3882197,59.1233926],[11.3883927,59.1235386],[11.3878238,59.1237026],[11.3875862,59.1237057],[11.387551,59.1233986]]]}},
{"type":"Feature","properties":{"fid":23,"id":"m567","adresse":null,"matrikkel":null,"lopenr_1901":"567","lopenr_1878":null,"gnr_bnr":null,"navn":null},"geometry":{"type":"Polygon","coordinates":[[[11.3883927,59.1235386],[11.3882197,59.1233926],[11.3885951,59.1232963],[11.3887622,59.1234348],[11.3883927,59.1235386]]]}},
{"type":"Feature","properties":{"fid":24,"id":"m452","adresse":null,"matrikkel":null,"lopenr_1901":"452","lopenr_1878":null,"gnr_bnr":null,"navn":null},"geometry":{"type":"Polygon","coordinates":[[[11.386197,59.1217225],[11.3857723,59.1217604],[11.3857269,59.1217453],[11.3855157,59.1212321],[11.3858706,59.1212757],[11.3858823,59.1213419],[11.3861426,59.1213575],[11.386197,59.1217225]]]}},
{"type":"Feature","properties":{"fid":25,"id":"m338","adresse":null,"matrikkel":null,"lopenr_1901":"338","lopenr_1878":null,"gnr_bnr":null,"navn":null},"geometry":{"type":"Polygon","coordinates":[[[11.3846748,59.1212351],[11.3846865,59.1211854],[11.385232,59.1212682],[11.3852085,59.1213088],[11.3846748,59.1212351]]]}},
{"type":"Feature","properties":{"fid":26,"id":"m339","adresse":null,"matrikkel":null,"lopenr_1901":"339","lopenr_1878":null,"gnr_bnr":null,"navn":null},"geometry":{"type":"Polygon","coordinates":[[[11.3840384,59.1214609],[11.3840003,59.1210575],[11.3844196,59.1210861],[11.3844226,59.1214187],[11.3840384,59.1214609]]]}},
{"type":"Feature","properties":{"fid":27,"id":"m331","adresse":null,"matrikkel":null,"lopenr_1901":"331","lopenr_1878":null,"gnr_bnr":null,"navn":null},"geometry":{"type":"Polygon","coordinates":[[[11.3838419,59.121518],[11.3838096,59.1210424],[11.3840003,59.1210575],[11.3840384,59.1214609],[11.3840413,59.1214985],[11.3838419,59.121518]]]}},
{"type":"Feature","properties":{"fid":28,"id":"m330","adresse":null,"matrikkel":null,"lopenr_1901":"330","lopenr_1878":null,"gnr_bnr":null,"navn":null},"geometry":{"type":"Polygon","coordinates":[[[11.3836777,59.1215286],[11.3836425,59.1210334],[11.3838096,59.1210424],[11.3838419,59.121518],[11.3836777,59.1215286]]]}},
{"type":"Feature","properties":{"fid":29,"id":"m329","adresse":null,"matrikkel":null,"lopenr_1901":"329","lopenr_1878":null,"gnr_bnr":null,"navn":null},"geometry":{"type":"Polygon","coordinates":[[[11.3824034,59.121655],[11.3822187,59.1209476],[11.3836425,59.1210334],[11.3836777,59.1215286],[11.3824034,59.121655]]]}},
{"type":"Feature","properties":{"fid":30,"id":"m376","adresse":null,"matrikkel":null,"lopenr_1901":"376","lopenr_1878":null,"gnr_bnr":null,"navn":null},"geometry":{"type":"Polygon","coordinates":[[[11.3852994,59.1218484],[11.385144,59.1214917],[11.3853933,59.1214977],[11.3854226,59.1215489],[11.3855458,59.1215308],[11.3856455,59.1217536],[11.3856191,59.1217897],[11.3852994,59.1218484]]]}},
{"type":"Feature","properties":{"fid":31,"id":"m375","adresse":null,"matrikkel":null,"lopenr_1901":"375","lopenr_1878":null,"gnr_bnr":null,"navn":null},"geometry":{"type":"Polygon","coordinates":[[[11.3849475,59.1219161],[11.384798,59.121573],[11.3849035,59.1215594],[11.3848859,59.1215339],[11.3849006,59.1215233],[11.385144,59.1214917],[11.3852994,59.1218484],[11.3849475,59.1219161]]]}},
{"type":"Feature","properties":{"fid":32,"id":"m371","adresse":null,"matrikkel":null,"lopenr_1901":"371","lopenr_1878":null,"gnr_bnr":null,"navn":null},"geometry":{"type":"Polygon","coordinates":[[[11.3847364,59.1219598],[11.3845809,59.1216482],[11.3848159,59.1216142],[11.3849475,59.1219161],[11.3847364,59.1219598]]]}},
{"type":"Feature","properties":{"fid":33,"id":"m370","adresse":null,"matrikkel":null,"lopenr_1901":"370","lopenr_1878":null,"gnr_bnr":null,"navn":null},"geometry":{"type":"Polygon","coordinates":[[[11.3847364,59.1219598],[11.3846191,59.1219794],[11.3844519,59.1216738],[11.3845809,59.1216482],[11.3847364,59.1219598]]]}},
{"type":"Feature","properties":{"fid":34,"id":"m369","adresse":null,"matrikkel":null,"lopenr_1901":"369","lopenr_1878":null,"gnr_bnr":null,"navn":null},"geometry":{"type":"Polygon","coordinates":[[[11.3846191,59.1219794],[11.3844959,59.1220049],[11.3843258,59.1216964],[11.3844519,59.1216738],[11.3846191,59.1219794]]]}}
]
}
