{
"type": "FeatureCollection",
"name": "parseller",
"xy_coordinate_resolution": 1e-07,
"features": [
{"type":"Feature","properties":{"id":"469","fid":1,"adresse":"Storgata 7","matrikkel":"537, 538, 539","lopenr_1878":"753","gnr_bnr":"66/139","navn":"Wielgården"},"geometry":{"type":"Polygon","coordinates":[[[11.3879135,59.1225896],[11.3874172,59.1222231],[11.387393,59.1220274],[11.3878348,59.1220212],[11.3879952,59.1221548],[11.3880345,59.1221815],[11.3881241,59.1222458],[11.3882169,59.12231],[11.388245,59.1223322],[11.3882796,59.1223571],[11.3883001,59.1223732],[11.3883206,59.1223859],[11.3883912,59.1224399],[11.3883099,59.1224591],[11.3879135,59.1225896]]]}},
{"type":"Feature","properties":{"id":"470","fid":2,"adresse":null,"matrikkel":null,"lopenr_1878":null,"gnr_bnr":null,"navn":null},"geometry":{"type":"Polygon","coordinates":[[[11.3871978,59.1226416],[11.3865268,59.1226775],[11.3865144,59.1223681],[11.3871857,59.1222681],[11.3871978,59.1226416]]]}},
{"type":"Feature","properties":{"id":"468","fid":3,"adresse":null,"matrikkel":null,"lopenr_1878":null,"gnr_bnr":null,"navn":null},"geometry":{"type":"Polygon","coordinates":[[[11.3871562,59.1220051],[11.3871857,59.1222681],[11.3865144,59.1223681],[11.3865186,59.1224739],[11.3862787,59.1224881],[11.3862485,59.1221697],[11.3871562,59.1220051]]]}},
{"type":"Feature","properties":{"id":"396","fid":4,"adresse":null,"matrikkel":null,"lopenr_1878":null,"gnr_bnr":null,"navn":null},"geometry":{"type":"Polygon","coordinates":[[[11.3857976,59.1222458],[11.3862485,59.1221697],[11.3862818,59.1225409],[11.385955,59.1225657],[11.3859338,59.1223421],[11.3858279,59.1223498],[11.3857976,59.1222458]]]}},
{"type":"Feature","properties":{"id":"377","fid":5,"adresse":null,"matrikkel":null,"lopenr_1878":null,"gnr_bnr":null,"navn":null},"geometry":{"type":"Polygon","coordinates":[[[11.386197,59.1217225],[11.3861426,59.1213575],[11.3867689,59.1214103],[11.386775,59.1214538],[11.3870049,59.1214445],[11.3870261,59.1216914],[11.386197,59.1217225]]]}},
{"type":"Feature","properties":{"id":"378","fid":6,"adresse":null,"matrikkel":null,"lopenr_1878":null,"gnr_bnr":null,"navn":null},"geometry":{"type":"Polygon","coordinates":[[[11.3862273,59.122089],[11.3861032,59.1218017],[11.3865881,59.1217869],[11.3866305,59.1218048],[11.3866365,59.1220086],[11.3866154,59.1220226],[11.3862273,59.122089]]]}},
{"type":"Feature","properties":{"id":"397","fid":7,"adresse":null,"matrikkel":null,"lopenr_1878":null,"gnr_bnr":null,"navn":null},"geometry":{"type":"Polygon","coordinates":[[[11.385905,59.122146],[11.3857462,59.1218296],[11.3860987,59.1217881],[11.3861032,59.1218017],[11.3862273,59.122089],[11.385905,59.122146]]]}},
{"type":"Feature","properties":{"id":"471","fid":8,"adresse":null,"matrikkel":null,"lopenr_1878":null,"gnr_bnr":null,"navn":null},"geometry":{"type":"Polygon","coordinates":[[[11.3874125,59.1225995],[11.3876559,59.1225678],[11.3880107,59.1228237],[11.3874564,59.1229441],[11.3874125,59.1225995]]]}},
{"type":"Feature","properties":{"id":"472","fid":9,"adresse":null,"matrikkel":null,"lopenr_1878":null,"gnr_bnr":null,"navn":null},"geometry":{"type":"Polygon","coordinates":[[[11.3865796,59.1231578],[11.3865356,59.1227936],[11.3871749,59.1227605],[11.3872248,59.1227755],[11.3872629,59.1231337],[11.3865796,59.1231578]]]}},
{"type":"Feature","properties":{"id":"473","fid":10,"adresse":null,"matrikkel":null,"lopenr_1878":null,"gnr_bnr":null,"navn":null},"geometry":{"type":"Polygon","coordinates":[[[11.3864593,59.1231638],[11.3865796,59.1231578],[11.3872629,59.1231337],[11.3872687,59.123203],[11.3872277,59.1232361],[11.3864535,59.1232406],[11.3864593,59.1231638]]]}},
{"type":"Feature","properties":{"id":"455","fid":11,"adresse":null,"matrikkel":null,"lopenr_1878":null,"gnr_bnr":null,"navn":null},"geometry":{"type":"Polygon","coordinates":[[[11.3861103,59.1231383],[11.3860429,59.1228899],[11.3860378,59.1228869],[11.3860202,59.1228764],[11.3860055,59.1228651],[11.3860055,59.1228467],[11.3860202,59.122832],[11.3860444,59.1228184],[11.3860781,59.1228132],[11.3860971,59.1228181],[11.3861103,59.1228226],[11.3865356,59.1227936],[11.3865796,59.1231578],[11.3864593,59.1231638],[11.3864535,59.1232406],[11.3862105,59.1232399],[11.3861414,59.1232211],[11.3861103,59.1231383]]]}},
{"type":"Feature","properties":{"id":"475","fid":12,"adresse":null,"matrikkel":null,"lopenr_1878":null,"gnr_bnr":null,"navn":null},"geometry":{"type":"Polygon","coordinates":[[[11.3873157,59.1233546],[11.3873157,59.1234585],[11.3869036,59.123463],[11.3869066,59.123557],[11.386628,59.1235435],[11.3866602,59.1234517],[11.3866397,59.1233742],[11.3870415,59.1233561],[11.3873157,59.1233546]]]}},
{"type":"Feature","properties":{"id":"389","fid":13,"adresse":null,"matrikkel":null,"lopenr_1878":null,"gnr_bnr":null,"navn":null},"geometry":{"type":"Polygon","coordinates":[[[11.3863889,59.1235394],[11.3863684,59.1233828],[11.3866397,59.1233742],[11.3866602,59.1234517],[11.386628,59.1235435],[11.3863889,59.1235394]]]}},
{"type":"Feature","properties":{"id":"476","fid":14,"adresse":null,"matrikkel":null,"lopenr_1878":null,"gnr_bnr":null,"navn":null},"geometry":{"type":"Polygon","coordinates":[[[11.3863889,59.1235394],[11.386628,59.1235435],[11.3869066,59.123557],[11.3869036,59.123463],[11.3873157,59.1234585],[11.3873347,59.1238133],[11.3870077,59.1238178],[11.3863611,59.1237139],[11.3863889,59.1235394]]]}},
{"type":"Feature","properties":{"id":"563","fid":15,"adresse":null,"matrikkel":null,"lopenr_1878":null,"gnr_bnr":null,"navn":null},"geometry":{"type":"Polygon","coordinates":[[[11.3879135,59.1225896],[11.3883099,59.1224591],[11.3883912,59.1224399],[11.3889162,59.1227545],[11.3884352,59.1229426],[11.3883033,59.1228643],[11.3879135,59.1225896]]]}},
{"type":"Feature","properties":{"id":"474","fid":16,"adresse":null,"matrikkel":null,"lopenr_1878":null,"gnr_bnr":null,"navn":null},"geometry":{"type":"Polygon","coordinates":[[[11.3874564,59.1229441],[11.3880107,59.1228237],[11.388271,59.1230133],[11.3875701,59.1232165],[11.3874909,59.1232075],[11.3874564,59.1229441]]]}},
{"type":"Feature","properties":{"id":"565","fid":17,"adresse":null,"matrikkel":null,"lopenr_1878":null,"gnr_bnr":null,"navn":null},"geometry":{"type":"Polygon","coordinates":[[[11.3885071,59.1229938],[11.3890291,59.1227891],[11.3893986,59.1229336],[11.3887388,59.1231849],[11.3885071,59.1229938]]]}},
{"type":"Feature","properties":{"id":"566","fid":18,"adresse":null,"matrikkel":null,"lopenr_1878":null,"gnr_bnr":null,"navn":null},"geometry":{"type":"Polygon","coordinates":[[[11.3887388,59.1231849],[11.3893986,59.1229336],[11.3897945,59.1230766],[11.3898913,59.1231684],[11.3889704,59.123367],[11.3887388,59.1231849]]]}},
{"type":"Feature","properties":{"id":"657","fid":19,"adresse":null,"matrikkel":null,"lopenr_1878":null,"gnr_bnr":null,"navn":null},"geometry":{"type":"Polygon","coordinates":[[[11.3903371,59.1229697],[11.3906363,59.1230425],[11.3905521,59.1232176],[11.3901915,59.1231023],[11.3903371,59.1229697]]]}},
{"type":"Feature","properties":{"id":"561","fid":20,"adresse":null,"matrikkel":null,"lopenr_1878":null,"gnr_bnr":null,"navn":null},"geometry":{"type":"Polygon","coordinates":[[[11.3882197,59.1233926],[11.3879557,59.1231744],[11.3883194,59.1230675],[11.3885951,59.1232963],[11.3882197,59.1233926]]]}},
{"type":"Feature","properties":{"id":"562","fid":21,"adresse":null,"matrikkel":null,"lopenr_1878":null,"gnr_bnr":null,"navn":null},"geometry":{"type":"Polygon","coordinates":[[[11.3879557,59.1231744],[11.3882197,59.1233926],[11.3878062,59.123513],[11.387771,59.1233926],[11.387551,59.1233986],[11.3875246,59.1233038],[11.3875481,59.1232827],[11.3879557,59.1231744]]]}},
{"type":"Feature","properties":{"id":"477","fid":22,"adresse":null,"matrikkel":null,"lopenr_1878":null,"gnr_bnr":null,"navn":null},"geometry":{"type":"Polygon","coordinates":[[[11.387551,59.1233986],[11.387771,59.1233926],[11.3878062,59.123513],[11.3882197,59.1233926],[11.3883927,59.1235386],[11.3878238,59.1237026],[11.3875862,59.1237057],[11.387551,59.1233986]]]}},
{"type":"Feature","properties":{"id":"567","fid":23,"adresse":null,"matrikkel":null,"lopenr_1878":null,"gnr_bnr":null,"navn":null},"geometry":{"type":"Polygon","coordinates":[[[11.3883927,59.1235386],[11.3882197,59.1233926],[11.3885951,59.1232963],[11.3887622,59.1234348],[11.3883927,59.1235386]]]}},
{"type":"Feature","properties":{"id":"452","fid":24,"adresse":null,"matrikkel":null,"lopenr_1878":null,"gnr_bnr":null,"navn":null},"geometry":{"type":"Polygon","coordinates":[[[11.386197,59.1217225],[11.3857723,59.1217604],[11.3857269,59.1217453],[11.3855157,59.1212321],[11.3858706,59.1212757],[11.3858823,59.1213419],[11.3861426,59.1213575],[11.386197,59.1217225]]]}},
{"type":"Feature","properties":{"id":"338","fid":25,"adresse":null,"matrikkel":null,"lopenr_1878":null,"gnr_bnr":null,"navn":null},"geometry":{"type":"Polygon","coordinates":[[[11.3846748,59.1212351],[11.3846865,59.1211854],[11.385232,59.1212682],[11.3852085,59.1213088],[11.3846748,59.1212351]]]}},
{"type":"Feature","properties":{"id":"339","fid":26,"adresse":null,"matrikkel":null,"lopenr_1878":null,"gnr_bnr":null,"navn":null},"geometry":{"type":"Polygon","coordinates":[[[11.3840384,59.1214609],[11.3840003,59.1210575],[11.3844196,59.1210861],[11.3844226,59.1214187],[11.3840384,59.1214609]]]}},
{"type":"Feature","properties":{"id":"331","fid":27,"adresse":null,"matrikkel":null,"lopenr_1878":null,"gnr_bnr":null,"navn":null},"geometry":{"type":"Polygon","coordinates":[[[11.3838419,59.121518],[11.3838096,59.1210424],[11.3840003,59.1210575],[11.3840384,59.1214609],[11.3840413,59.1214985],[11.3838419,59.121518]]]}},
{"type":"Feature","properties":{"id":"330","fid":28,"adresse":null,"matrikkel":null,"lopenr_1878":null,"gnr_bnr":null,"navn":null},"geometry":{"type":"Polygon","coordinates":[[[11.3836777,59.1215286],[11.3836425,59.1210334],[11.3838096,59.1210424],[11.3838419,59.121518],[11.3836777,59.1215286]]]}},
{"type":"Feature","properties":{"id":"329","fid":29,"adresse":null,"matrikkel":null,"lopenr_1878":null,"gnr_bnr":null,"navn":null},"geometry":{"type":"Polygon","coordinates":[[[11.3824034,59.121655],[11.3822187,59.1209476],[11.3836425,59.1210334],[11.3836777,59.1215286],[11.3824034,59.121655]]]}},
{"type":"Feature","properties":{"id":"376","fid":30,"adresse":null,"matrikkel":null,"lopenr_1878":null,"gnr_bnr":null,"navn":null},"geometry":{"type":"Polygon","coordinates":[[[11.3852994,59.1218484],[11.385144,59.1214917],[11.3853933,59.1214977],[11.3854226,59.1215489],[11.3855458,59.1215308],[11.3856455,59.1217536],[11.3856191,59.1217897],[11.3852994,59.1218484]]]}},
{"type":"Feature","properties":{"id":"375","fid":31,"adresse":null,"matrikkel":null,"lopenr_1878":null,"gnr_bnr":null,"navn":null},"geometry":{"type":"Polygon","coordinates":[[[11.3849475,59.1219161],[11.384798,59.121573],[11.3849035,59.1215594],[11.3848859,59.1215339],[11.3849006,59.1215233],[11.385144,59.1214917],[11.3852994,59.1218484],[11.3849475,59.1219161]]]}},
{"type":"Feature","properties":{"id":"371","fid":32,"adresse":null,"matrikkel":null,"lopenr_1878":null,"gnr_bnr":null,"navn":null},"geometry":{"type":"Polygon","coordinates":[[[11.3847364,59.1219598],[11.3845809,59.1216482],[11.3848159,59.1216142],[11.3849475,59.1219161],[11.3847364,59.1219598]]]}},
{"type":"Feature","properties":{"id":"370","fid":33,"adresse":null,"matrikkel":null,"lopenr_1878":null,"gnr_bnr":null,"navn":null},"geometry":{"type":"Polygon","coordinates":[[[11.3847364,59.1219598],[11.3846191,59.1219794],[11.3844519,59.1216738],[11.3845809,59.1216482],[11.3847364,59.1219598]]]}},
{"type":"Feature","properties":{"id":"369","fid":34,"adresse":null,"matrikkel":null,"lopenr_1878":null,"gnr_bnr":null,"navn":null},"geometry":{"type":"Polygon","coordinates":[[[11.3846191,59.1219794],[11.3844959,59.1220049],[11.3843258,59.1216964],[11.3844519,59.1216738],[11.3846191,59.1219794]]]}},
{"type":"Feature","properties":{"id":"326","fid":null,"adresse":null,"matrikkel":null,"lopenr_1878":null,"gnr_bnr":null,"navn":null},"geometry":{"type":"Polygon","coordinates":[[[11.3821606,59.1216574],[11.3819866,59.1209377],[11.3809067,59.1208589],[11.3808709,59.1209193],[11.3806303,59.1209009],[11.3806354,59.1208405],[11.378839,59.1206225],[11.3788339,59.1206015],[11.3784705,59.1205463],[11.3779638,59.1214105],[11.3803181,59.1215392],[11.381352,59.1215996],[11.3821606,59.1216574]]]}},
{"type":"Feature","properties":{"id":"374","fid":null,"adresse":null,"matrikkel":null,"lopenr_1878":null,"gnr_bnr":null,"navn":null},"geometry":{"type":"Polygon","coordinates":[[[11.3855795,59.1220554],[11.3857637,59.1220212],[11.3856665,59.1218347],[11.3854771,59.1218781],[11.3855795,59.1220554]]]}},
{"type":"Feature","properties":{"id":"368","fid":null,"adresse":null,"matrikkel":null,"lopenr_1878":null,"gnr_bnr":null,"navn":null},"geometry":{"type":"Polygon","coordinates":[[[11.3854771,59.1218781],[11.38517,59.1219464],[11.3852801,59.1220803],[11.385385,59.1220606],[11.3853338,59.1219923],[11.3855179,59.1219488],[11.3854771,59.1218781]]]}},
{"type":"Feature","properties":{"id":"373","fid":null,"adresse":null,"matrikkel":null,"lopenr_1878":null,"gnr_bnr":null,"navn":null},"geometry":{"type":"Polygon","coordinates":[[[11.3852801,59.1220803],[11.3853876,59.1222235],[11.3857433,59.1221631],[11.385687,59.1220659],[11.3854362,59.1221079],[11.385385,59.1220606],[11.3852801,59.1220803]]]}},
{"type":"Feature","properties":{"id":"372","fid":null,"adresse":null,"matrikkel":null,"lopenr_1878":null,"gnr_bnr":null,"navn":null},"geometry":{"type":"Polygon","coordinates":[[[11.3850216,59.1222865],[11.3853876,59.1222235],[11.3852801,59.1220803],[11.38517,59.1219464],[11.3848425,59.1220186],[11.3850216,59.1222865]]]}},
{"type":"Feature","properties":{"id":"394","fid":null,"adresse":null,"matrikkel":null,"lopenr_1878":null,"gnr_bnr":null,"navn":null},"geometry":{"type":"Polygon","coordinates":[[[11.3850216,59.1222865],[11.3847248,59.1223364],[11.3845687,59.1220869],[11.3848425,59.1220186],[11.3850216,59.1222865]]]}},
{"type":"Feature","properties":{"id":"335","fid":null,"adresse":null,"matrikkel":null,"lopenr_1878":null,"gnr_bnr":null,"navn":null},"geometry":{"type":"Polygon","coordinates":[[[11.3825803,59.1220015],[11.3824626,59.1217362],[11.3840287,59.1215616],[11.3841029,59.121576],[11.3841695,59.1216916],[11.3841567,59.1217178],[11.3825803,59.1220015]]]}},
{"type":"Feature","properties":{"id":"334","fid":null,"adresse":null,"matrikkel":null,"lopenr_1878":null,"gnr_bnr":null,"navn":null},"geometry":{"type":"Polygon","coordinates":[[[11.3825803,59.1220015],[11.3822425,59.1220672],[11.3822834,59.121752],[11.3824626,59.1217362],[11.3825803,59.1220015]]]}},
{"type":"Feature","properties":{"id":"327","fid":null,"adresse":null,"matrikkel":null,"lopenr_1878":null,"gnr_bnr":null,"navn":null},"geometry":{"type":"Polygon","coordinates":[[[11.3818535,59.1217815],[11.3818766,59.1218393],[11.382135,59.1218144],[11.3821197,59.1217566],[11.3818535,59.1217815]]]}},
{"type":"Feature","properties":{"id":"328","fid":null,"adresse":null,"matrikkel":null,"lopenr_1878":null,"gnr_bnr":null,"navn":null},"geometry":{"type":"Polygon","coordinates":[[[11.3815951,59.1218656],[11.3818766,59.1218393],[11.3818535,59.1217815],[11.381572,59.1218039],[11.3815951,59.1218656]]]}},
{"type":"Feature","properties":{"id":"327","fid":null,"adresse":null,"matrikkel":null,"lopenr_1878":null,"gnr_bnr":null,"navn":null},"geometry":{"type":"Polygon","coordinates":[[[11.3806482,59.1223318],[11.3804716,59.1219181],[11.3815771,59.1218173],[11.3815951,59.1218656],[11.3815029,59.1218722],[11.3816155,59.1221755],[11.3806482,59.1223318]]]}},
{"type":"Feature","properties":{"id":"333","fid":null,"adresse":null,"matrikkel":null,"lopenr_1878":null,"gnr_bnr":null,"navn":null},"geometry":{"type":"Polygon","coordinates":[[[11.3816155,59.1221755],[11.3821299,59.1221007],[11.382135,59.121884],[11.3815248,59.1219311],[11.3816155,59.1221755]]]}},
{"type":"Feature","properties":{"id":"298","fid":null,"adresse":null,"matrikkel":null,"lopenr_1878":null,"gnr_bnr":null,"navn":null},"geometry":{"type":"Polygon","coordinates":[[[11.3736236,59.1208241],[11.3752307,59.1207177],[11.3752538,59.1207978],[11.3748699,59.1208202],[11.3748725,59.1208491],[11.375264,59.120828],[11.3752768,59.1209068],[11.3750772,59.120916],[11.3751028,59.1210303],[11.3752947,59.1210185],[11.3753152,59.1211052],[11.3749339,59.1211222],[11.3749416,59.1211485],[11.3753254,59.1211301],[11.3753382,59.1212089],[11.3751859,59.1213636],[11.3749556,59.1213846],[11.3746716,59.121491],[11.3745425,59.1215381],[11.3738616,59.1213074],[11.3736774,59.1212404],[11.3737362,59.1211879],[11.3738156,59.1212273],[11.373813,59.1211249],[11.3735597,59.1211393],[11.3735392,59.1210434],[11.3737081,59.1210067],[11.3736236,59.1208241]]]}},
{"type":"Feature","properties":{"id":"297","fid":null,"adresse":null,"matrikkel":null,"lopenr_1878":null,"gnr_bnr":null,"navn":null},"geometry":{"type":"Polygon","coordinates":[[[11.3688205,59.1195838],[11.3691276,59.1188089],[11.3692811,59.1187747],[11.3744285,59.1198978],[11.3751476,59.1200082],[11.3757336,59.1201027],[11.3755903,59.1203024],[11.375122,59.1202656],[11.375017,59.1204114],[11.3752307,59.1207177],[11.3736236,59.1208241],[11.3730647,59.1208696],[11.3724339,59.1207685],[11.3719796,59.1206976],[11.3716431,59.1206844],[11.3709803,59.1206923],[11.368912,59.1207107],[11.3682108,59.1206792],[11.367438,59.1206135],[11.3673151,59.1206529],[11.366921,59.1205978],[11.3668596,59.1205216],[11.3662045,59.1203876],[11.3659332,59.1202878],[11.365964,59.1200382],[11.3660049,59.1200199],[11.3660254,59.1199621],[11.3661021,59.1199621],[11.3663273,59.1197572],[11.3678218,59.1202405],[11.3680265,59.1202195],[11.3681903,59.1200199],[11.3687284,59.1201039],[11.3688,59.1197309],[11.3688205,59.1195838]]]}},
{"type":"Feature","properties":{"id":"326","fid":null,"adresse":null,"matrikkel":null,"lopenr_1878":null,"gnr_bnr":null,"navn":null},"geometry":{"type":"Polygon","coordinates":[[[11.3758898,59.1207235],[11.3760613,59.1211809],[11.3770107,59.1217509],[11.3773178,59.1216222],[11.3773383,59.1216931],[11.3775097,59.121723],[11.378239,59.1205199],[11.3762123,59.1202126],[11.3758898,59.1207235]]]}},
{"type":"Feature","properties":{"id":"299","fid":null,"adresse":null,"matrikkel":null,"lopenr_1878":null,"gnr_bnr":null,"navn":null},"geometry":{"type":"Polygon","coordinates":[[[11.3746716,59.121491],[11.3749556,59.1213846],[11.3751859,59.1213636],[11.3752064,59.121382],[11.3753369,59.121378],[11.37547,59.1215159],[11.3752832,59.1215619],[11.375058,59.121617],[11.3749147,59.1216709],[11.3746716,59.121491]]]}},
{"type":"Feature","properties":{"id":"300","fid":null,"adresse":null,"matrikkel":null,"lopenr_1878":null,"gnr_bnr":null,"navn":null},"geometry":{"type":"Polygon","coordinates":[[[11.3750273,59.1217247],[11.375145,59.1216538],[11.3755493,59.1218482],[11.3754265,59.1219139],[11.3750273,59.1217247]]]}},
{"type":"Feature","properties":{"id":"301","fid":null,"adresse":null,"matrikkel":null,"lopenr_1878":null,"gnr_bnr":null,"navn":null},"geometry":{"type":"Polygon","coordinates":[[[11.3755135,59.1219585],[11.3756312,59.1218981],[11.3759997,59.1220715],[11.3758769,59.1221319],[11.3755135,59.1219585]]]}},
{"type":"Feature","properties":{"id":"302","fid":null,"adresse":null,"matrikkel":null,"lopenr_1878":null,"gnr_bnr":null,"navn":null},"geometry":{"type":"Polygon","coordinates":[[[11.3760918,59.1222448],[11.3761993,59.122187],[11.3763273,59.1222448],[11.3762863,59.1222658],[11.376358,59.1223026],[11.3762863,59.122342],[11.3760918,59.1222448]]]}},
{"type":"Feature","properties":{"id":"303","fid":null,"adresse":null,"matrikkel":null,"lopenr_1878":null,"gnr_bnr":null,"navn":null},"geometry":{"type":"Polygon","coordinates":[[[11.3765115,59.1224707],[11.3766753,59.1223814],[11.3767418,59.1224077],[11.3767879,59.1223867],[11.37688,59.1224287],[11.3768288,59.1224497],[11.3768493,59.1224786],[11.376921,59.1225075],[11.3767572,59.1225889],[11.3765115,59.1224707]]]}},
{"type":"Feature","properties":{"id":"304","fid":null,"adresse":null,"matrikkel":null,"lopenr_1878":null,"gnr_bnr":null,"navn":null},"geometry":{"type":"Polygon","coordinates":[[[11.3771462,59.1229172],[11.377397,59.1228962],[11.3774533,59.1231536],[11.3771922,59.1231668],[11.3771462,59.1229172]]]}},
{"type":"Feature","properties":{"id":"305","fid":null,"adresse":null,"matrikkel":null,"lopenr_1878":null,"gnr_bnr":null,"navn":null},"geometry":{"type":"Polygon","coordinates":[[[11.3774686,59.1227544],[11.3778832,59.1227281],[11.377919,59.1229094],[11.3774993,59.1229356],[11.3774686,59.1227544]]]}},
{"type":"Feature","properties":{"id":"306","fid":null,"adresse":null,"matrikkel":null,"lopenr_1878":null,"gnr_bnr":null,"navn":null},"geometry":{"type":"Polygon","coordinates":[[[11.377919,59.1229094],[11.3778832,59.1227281],[11.3778819,59.122712],[11.3780853,59.1227028],[11.3780879,59.1227547],[11.3779799,59.1227643],[11.3780055,59.1228995],[11.377919,59.1229094]]]}},
{"type":"Feature","properties":{"id":"307","fid":null,"adresse":null,"matrikkel":null,"lopenr_1878":null,"gnr_bnr":null,"navn":null},"geometry":{"type":"Polygon","coordinates":[[[11.3782256,59.1225121],[11.378113,59.1220761],[11.3775219,59.1221234],[11.3772583,59.1225436],[11.3773095,59.1225647],[11.3782256,59.1225121]]]}},
{"type":"Feature","properties":{"id":"308","fid":null,"adresse":null,"matrikkel":null,"lopenr_1878":null,"gnr_bnr":null,"navn":null},"geometry":{"type":"Polygon","coordinates":[[[11.3782256,59.1225121],[11.378113,59.1220761],[11.3796484,59.1219632],[11.3797994,59.1224202],[11.3794693,59.1224491],[11.3782256,59.1225121]]]}},
{"type":"Feature","properties":{"id":"309","fid":null,"adresse":null,"matrikkel":null,"lopenr_1878":null,"gnr_bnr":null,"navn":null},"geometry":{"type":"Polygon","coordinates":[[[11.3797994,59.1224202],[11.3796484,59.1219632],[11.3802754,59.1219224],[11.380452,59.1223585],[11.3797994,59.1224202]]]}},
{"type":"Feature","properties":{"id":"326","fid":null,"adresse":null,"matrikkel":null,"lopenr_1878":null,"gnr_bnr":null,"navn":null},"geometry":{"type":"Polygon","coordinates":[[[11.3778686,59.121554],[11.3779147,59.1215357],[11.379033,59.1215908],[11.3801129,59.121642],[11.3801743,59.1216696],[11.3802204,59.1217957],[11.3801999,59.1218154],[11.3776255,59.1220085],[11.3776102,59.1219914],[11.3778686,59.121554]]]}},
{"type":"Feature","properties":{"id":"310","fid":null,"adresse":null,"matrikkel":null,"lopenr_1878":null,"gnr_bnr":null,"navn":null},"geometry":{"type":"Polygon","coordinates":[[[11.3789133,59.122629],[11.3792294,59.1226323],[11.3792332,59.1225732],[11.3789223,59.1225811],[11.3789133,59.122629]]]}},
{"type":"Feature","properties":{"id":"311","fid":null,"adresse":null,"matrikkel":null,"lopenr_1878":null,"gnr_bnr":null,"navn":null},"geometry":{"type":"Polygon","coordinates":[[[11.3792332,59.1225732],[11.3792294,59.1226323],[11.3792281,59.1226717],[11.379374,59.1226763],[11.3793791,59.1225693],[11.3792332,59.1225732]]]}},
{"type":"Feature","properties":{"id":"313","fid":null,"adresse":null,"matrikkel":null,"lopenr_1878":null,"gnr_bnr":null,"navn":null},"geometry":{"type":"Polygon","coordinates":[[[11.379374,59.1226763],[11.3795339,59.1226822],[11.3795403,59.122627],[11.3794904,59.1225706],[11.3793791,59.1225693],[11.379374,59.1226763]]]}},
{"type":"Feature","properties":{"id":"312","fid":null,"adresse":null,"matrikkel":null,"lopenr_1878":null,"gnr_bnr":null,"navn":null},"geometry":{"type":"Polygon","coordinates":[[[11.3795339,59.1226822],[11.3795275,59.1227643],[11.3790387,59.1227538],[11.3790336,59.122654],[11.3792281,59.1226717],[11.379374,59.1226763],[11.3795339,59.1226822]]]}},
{"type":"Feature","properties":{"id":"316","fid":null,"adresse":null,"matrikkel":null,"lopenr_1878":null,"gnr_bnr":null,"navn":null},"geometry":{"type":"Polygon","coordinates":[[[11.3796209,59.1226737],[11.379571,59.1227045],[11.3796452,59.1227347],[11.3796248,59.1227498],[11.3797182,59.1227905],[11.3797911,59.1227505],[11.3796209,59.1226737]]]}},
{"type":"Feature","properties":{"id":"314","fid":null,"adresse":null,"matrikkel":null,"lopenr_1878":null,"gnr_bnr":null,"navn":null},"geometry":{"type":"Polygon","coordinates":[[[11.3798474,59.1226999],[11.3800137,59.1226139],[11.379832,59.1225364],[11.3796299,59.1225482],[11.3796759,59.1226152],[11.3798474,59.1226999]]]}},
{"type":"Feature","properties":{"id":"315","fid":null,"adresse":null,"matrikkel":null,"lopenr_1878":null,"gnr_bnr":null,"navn":null},"geometry":{"type":"Polygon","coordinates":[[[11.3800137,59.1226139],[11.3802236,59.1227098],[11.3800675,59.1227807],[11.379857,59.122695],[11.3800137,59.1226139]]]}},
{"type":"Feature","properties":{"id":"317","fid":null,"adresse":null,"matrikkel":null,"lopenr_1878":null,"gnr_bnr":null,"navn":null},"geometry":{"type":"Polygon","coordinates":[[[11.3797092,59.1229357],[11.3797885,59.1229173],[11.379832,59.1229396],[11.3799293,59.1228989],[11.3800675,59.1229685],[11.3799651,59.1230145],[11.3798858,59.1229751],[11.3798372,59.1229948],[11.3797092,59.1229357]]]}},
{"type":"Feature","properties":{"id":"318","fid":null,"adresse":null,"matrikkel":null,"lopenr_1878":null,"gnr_bnr":null,"navn":null},"geometry":{"type":"Polygon","coordinates":[[[11.3800163,59.1228647],[11.3803003,59.1227597],[11.3804283,59.1228253],[11.3801775,59.1229475],[11.3800163,59.1228647]]]}},
{"type":"Feature","properties":{"id":"318","fid":null,"adresse":null,"matrikkel":null,"lopenr_1878":null,"gnr_bnr":null,"navn":null},"geometry":{"type":"Polygon","coordinates":[[[11.3801775,59.1229475],[11.3804283,59.1228253],[11.380546,59.122891],[11.3803003,59.1230105],[11.3801775,59.1229475]]]}},
{"type":"Feature","properties":{"id":"319","fid":null,"adresse":null,"matrikkel":null,"lopenr_1878":null,"gnr_bnr":null,"navn":null},"geometry":{"type":"Polygon","coordinates":[[[11.3803003,59.1230105],[11.380546,59.122891],[11.3806791,59.1229619],[11.3804462,59.1230801],[11.3803003,59.1230105]]]}},
{"type":"Feature","properties":{"id":"320","fid":null,"adresse":null,"matrikkel":null,"lopenr_1878":null,"gnr_bnr":null,"navn":null},"geometry":{"type":"Polygon","coordinates":[[[11.3804462,59.1230801],[11.3806791,59.1229619],[11.3808122,59.1230302],[11.3807047,59.1230828],[11.3804948,59.1231064],[11.3804462,59.1230801]]]}},
{"type":"Feature","properties":{"id":"321","fid":null,"adresse":null,"matrikkel":null,"lopenr_1878":null,"gnr_bnr":null,"navn":null},"geometry":{"type":"Polygon","coordinates":[[[11.3803541,59.1231957],[11.3807149,59.1231589],[11.3806996,59.1231208],[11.3804769,59.1231471],[11.3804539,59.1231116],[11.3803208,59.1231287],[11.3803541,59.1231957]]]}},
{"type":"Feature","properties":{"id":"322","fid":null,"adresse":null,"matrikkel":null,"lopenr_1878":null,"gnr_bnr":null,"navn":null},"geometry":{"type":"Polygon","coordinates":[[[11.3802748,59.1232298],[11.3803541,59.1231957],[11.3805234,59.1231784],[11.3805665,59.1232797],[11.3804616,59.1232876],[11.380349,59.1233008],[11.3802748,59.1232298]]]}},
{"type":"Feature","properties":{"id":"323","fid":null,"adresse":null,"matrikkel":null,"lopenr_1878":null,"gnr_bnr":null,"navn":null},"geometry":{"type":"Polygon","coordinates":[[[11.3805409,59.123306],[11.3806996,59.1232824],[11.3807584,59.1233809],[11.3806023,59.1234032],[11.3805409,59.123306]]]}},
{"type":"Feature","properties":{"id":"399","fid":null,"adresse":null,"matrikkel":null,"lopenr_1878":null,"gnr_bnr":null,"navn":null},"geometry":{"type":"Polygon","coordinates":[[[11.3811269,59.1233021],[11.3811755,59.1231734],[11.3809938,59.123151],[11.3809631,59.1231151],[11.3807774,59.1231322],[11.3808433,59.123273],[11.3811269,59.1233021]]]}},
{"type":"Feature","properties":{"id":"400","fid":null,"adresse":null,"matrikkel":null,"lopenr_1878":null,"gnr_bnr":null,"navn":null},"geometry":{"type":"Polygon","coordinates":[[[11.3811755,59.1231734],[11.3814647,59.1231983],[11.3815236,59.1232325],[11.3814801,59.1233415],[11.3811269,59.1233021],[11.3811755,59.1231734]]]}},
{"type":"Feature","properties":{"id":"340","fid":null,"adresse":null,"matrikkel":null,"lopenr_1878":null,"gnr_bnr":null,"navn":null},"geometry":{"type":"Polygon","coordinates":[[[11.3807507,59.1225719],[11.3807303,59.1225154],[11.3809606,59.1224865],[11.3809938,59.122543],[11.3807507,59.1225719]]]}},
{"type":"Feature","properties":{"id":"325","fid":null,"adresse":null,"matrikkel":null,"lopenr_1878":null,"gnr_bnr":null,"navn":null},"geometry":{"type":"Polygon","coordinates":[[[11.3807303,59.1225154],[11.380674,59.1223828],[11.3809043,59.122346],[11.3809606,59.1224865],[11.3807303,59.1225154]]]}},
{"type":"Feature","properties":{"id":"341","fid":null,"adresse":null,"matrikkel":null,"lopenr_1878":null,"gnr_bnr":null,"navn":null},"geometry":{"type":"Polygon","coordinates":[[[11.3809938,59.122543],[11.3809606,59.1224865],[11.3809043,59.122346],[11.3811269,59.1223118],[11.3812242,59.122522],[11.3809938,59.122543]]]}},
{"type":"Feature","properties":{"id":"342","fid":null,"adresse":null,"matrikkel":null,"lopenr_1878":null,"gnr_bnr":null,"navn":null},"geometry":{"type":"Polygon","coordinates":[[[11.3812242,59.122522],[11.3811269,59.1223118],[11.3813214,59.1222803],[11.3814135,59.1225062],[11.3812242,59.122522]]]}},
{"type":"Feature","properties":{"id":"343","fid":null,"adresse":null,"matrikkel":null,"lopenr_1878":null,"gnr_bnr":null,"navn":null},"geometry":{"type":"Polygon","coordinates":[[[11.3814135,59.1225062],[11.3813214,59.1222803],[11.3815312,59.1222488],[11.3816464,59.1224813],[11.3814135,59.1225062]]]}},
{"type":"Feature","properties":{"id":"347","fid":null,"adresse":null,"matrikkel":null,"lopenr_1878":null,"gnr_bnr":null,"navn":null},"geometry":{"type":"Polygon","coordinates":[[[11.3816464,59.1224813],[11.3815312,59.1222488],[11.381695,59.1222238],[11.3818153,59.1224602],[11.3816464,59.1224813]]]}},
{"type":"Feature","properties":{"id":"348","fid":null,"adresse":null,"matrikkel":null,"lopenr_1878":null,"gnr_bnr":null,"navn":null},"geometry":{"type":"Polygon","coordinates":[[[11.3818153,59.1224602],[11.381695,59.1222238],[11.3818665,59.1221989],[11.381974,59.1224405],[11.3818153,59.1224602]]]}},
{"type":"Feature","properties":{"id":"349","fid":null,"adresse":null,"matrikkel":null,"lopenr_1878":null,"gnr_bnr":null,"navn":null},"geometry":{"type":"Polygon","coordinates":[[[11.3818665,59.1221989],[11.3818626,59.122191],[11.3821544,59.1221428],[11.382322,59.1223906],[11.381974,59.1224405],[11.3818665,59.1221989]]]}},
{"type":"Feature","properties":{"id":"350","fid":null,"adresse":null,"matrikkel":null,"lopenr_1878":null,"gnr_bnr":null,"navn":null},"geometry":{"type":"Polygon","coordinates":[[[11.3824282,59.1223831],[11.3825932,59.1223549],[11.3824346,59.1220981],[11.382235,59.1221336],[11.3822798,59.122194],[11.3824282,59.1223831]]]}},
{"type":"Feature","properties":{"id":"351","fid":null,"adresse":null,"matrikkel":null,"lopenr_1878":null,"gnr_bnr":null,"navn":null},"geometry":{"type":"Polygon","coordinates":[[[11.3825932,59.1223549],[11.3827813,59.1223207],[11.3826291,59.1220653],[11.3824346,59.1220981],[11.3825932,59.1223549]]]}},
{"type":"Feature","properties":{"id":"356","fid":null,"adresse":null,"matrikkel":null,"lopenr_1878":null,"gnr_bnr":null,"navn":null},"geometry":{"type":"Polygon","coordinates":[[[11.3828389,59.1223056],[11.3826828,59.1220469],[11.3828402,59.1220219],[11.3829937,59.1222839],[11.3828389,59.1223056]]]}},
{"type":"Feature","properties":{"id":"357","fid":null,"adresse":null,"matrikkel":null,"lopenr_1878":null,"gnr_bnr":null,"navn":null},"geometry":{"type":"Polygon","coordinates":[[[11.3829937,59.1222839],[11.3831972,59.1222544],[11.383036,59.1219845],[11.3828402,59.1220219],[11.3829937,59.1222839]]]}},
{"type":"Feature","properties":{"id":"358","fid":null,"adresse":null,"matrikkel":null,"lopenr_1878":null,"gnr_bnr":null,"navn":null},"geometry":{"type":"Polygon","coordinates":[[[11.3831972,59.1222544],[11.3833904,59.1222222],[11.3833123,59.1220948],[11.3831209,59.1221267],[11.3831972,59.1222544]]]}},
{"type":"Feature","properties":{"id":"336","fid":null,"adresse":null,"matrikkel":null,"lopenr_1878":null,"gnr_bnr":null,"navn":null},"geometry":{"type":"Polygon","coordinates":[[[11.3831209,59.1221267],[11.383036,59.1219845],[11.3832266,59.1219431],[11.3833123,59.1220948],[11.3831209,59.1221267]]]}},
{"type":"Feature","properties":{"id":"359","fid":null,"adresse":null,"matrikkel":null,"lopenr_1878":null,"gnr_bnr":null,"navn":null},"geometry":{"type":"Polygon","coordinates":[[[11.3833904,59.1222222],[11.3836335,59.1221782],[11.3834544,59.1218873],[11.3832266,59.1219431],[11.3833123,59.1220948],[11.3833904,59.1222222]]]}},
{"type":"Feature","properties":{"id":"362","fid":null,"adresse":null,"matrikkel":null,"lopenr_1878":null,"gnr_bnr":null,"navn":null},"geometry":{"type":"Polygon","coordinates":[[[11.3836335,59.1221782],[11.3837915,59.1221482],[11.3836098,59.121854],[11.3834544,59.1218873],[11.3836335,59.1221782]]]}},
{"type":"Feature","properties":{"id":"363","fid":null,"adresse":null,"matrikkel":null,"lopenr_1878":null,"gnr_bnr":null,"navn":null},"geometry":{"type":"Polygon","coordinates":[[[11.3837915,59.1221482],[11.383922,59.1221232],[11.3837557,59.1218303],[11.3836098,59.121854],[11.3837915,59.1221482]]]}},
{"type":"Feature","properties":{"id":"364","fid":null,"adresse":null,"matrikkel":null,"lopenr_1878":null,"gnr_bnr":null,"navn":null},"geometry":{"type":"Polygon","coordinates":[[[11.383922,59.1221232],[11.3841498,59.1220812],[11.3839783,59.1217923],[11.3837557,59.1218303],[11.383922,59.1221232]]]}},
{"type":"Feature","properties":{"id":"365","fid":null,"adresse":null,"matrikkel":null,"lopenr_1878":null,"gnr_bnr":null,"navn":null},"geometry":{"type":"Polygon","coordinates":[[[11.3841498,59.1220812],[11.3843724,59.1220378],[11.3842086,59.1217542],[11.3839783,59.1217923],[11.3841498,59.1220812]]]}},
{"type":"Feature","properties":{"id":"367","fid":null,"adresse":null,"matrikkel":null,"lopenr_1878":null,"gnr_bnr":null,"navn":null},"geometry":{"type":"Polygon","coordinates":[[[11.3845687,59.1220869],[11.3844415,59.1221166],[11.3844825,59.1221968],[11.3846197,59.1221684],[11.3845687,59.1220869]]]}},
{"type":"Feature","properties":{"id":"366","fid":null,"adresse":null,"matrikkel":null,"lopenr_1878":null,"gnr_bnr":null,"navn":null},"geometry":{"type":"Polygon","coordinates":[[[11.3842291,59.1221587],[11.3844415,59.1221166],[11.3844825,59.1221968],[11.3845183,59.122244],[11.3842777,59.1222887],[11.3842675,59.1222191],[11.3842291,59.1221587]]]}},
{"type":"Feature","properties":{"id":"393","fid":null,"adresse":null,"matrikkel":null,"lopenr_1878":null,"gnr_bnr":null,"navn":null},"geometry":{"type":"Polygon","coordinates":[[[11.3842777,59.1222887],[11.3843059,59.1224056],[11.3847248,59.1223364],[11.3846197,59.1221684],[11.3844825,59.1221968],[11.3845183,59.122244],[11.3842777,59.1222887]]]}},
{"type":"Feature","properties":{"id":"439","fid":null,"adresse":null,"matrikkel":null,"lopenr_1878":null,"gnr_bnr":null,"navn":null},"geometry":{"type":"Polygon","coordinates":[[[11.3842803,59.1224121],[11.3842214,59.1223097],[11.3837787,59.1223806],[11.3838453,59.1224857],[11.3842803,59.1224121]]]}},
{"type":"Feature","properties":{"id":"361","fid":null,"adresse":null,"matrikkel":null,"lopenr_1878":null,"gnr_bnr":null,"navn":null},"geometry":{"type":"Polygon","coordinates":[[[11.3837787,59.1223806],[11.3837173,59.1222624],[11.3841472,59.1221876],[11.3842214,59.1223097],[11.3837787,59.1223806]]]}},
{"type":"Feature","properties":{"id":"392","fid":null,"adresse":null,"matrikkel":null,"lopenr_1878":null,"gnr_bnr":null,"navn":null},"geometry":{"type":"Polygon","coordinates":[[[11.3835958,59.122531],[11.3835343,59.1224174],[11.3837754,59.1223742],[11.3837787,59.1223806],[11.3838453,59.1224857],[11.3835958,59.122531]]]}},
{"type":"Feature","properties":{"id":"360","fid":null,"adresse":null,"matrikkel":null,"lopenr_1878":null,"gnr_bnr":null,"navn":null},"geometry":{"type":"Polygon","coordinates":[[[11.3835343,59.1224174],[11.3834678,59.1223018],[11.3837173,59.1222624],[11.3837754,59.1223742],[11.3835343,59.1224174]]]}},
{"type":"Feature","properties":{"id":"391","fid":null,"adresse":null,"matrikkel":null,"lopenr_1878":null,"gnr_bnr":null,"navn":null},"geometry":{"type":"Polygon","coordinates":[[[11.3835958,59.122531],[11.3833885,59.1225671],[11.3830315,59.1226111],[11.3829752,59.1225021],[11.383377,59.1224404],[11.3835343,59.1224174],[11.3835958,59.122531]]]}},
{"type":"Feature","properties":{"id":"355","fid":null,"adresse":null,"matrikkel":null,"lopenr_1878":null,"gnr_bnr":null,"navn":null},"geometry":{"type":"Polygon","coordinates":[[[11.383377,59.1224404],[11.3833066,59.1223294],[11.3834678,59.1223018],[11.3835343,59.1224174],[11.383377,59.1224404]]]}},
{"type":"Feature","properties":{"id":"354","fid":null,"adresse":null,"matrikkel":null,"lopenr_1878":null,"gnr_bnr":null,"navn":null},"geometry":{"type":"Polygon","coordinates":[[[11.3829752,59.1225021],[11.3829214,59.1223944],[11.3833066,59.1223294],[11.383377,59.1224404],[11.3829752,59.1225021]]]}},
{"type":"Feature","properties":{"id":"388","fid":null,"adresse":null,"matrikkel":null,"lopenr_1878":null,"gnr_bnr":null,"navn":null},"geometry":{"type":"Polygon","coordinates":[[[11.3826707,59.1226439],[11.3826438,59.1225803],[11.3826374,59.1225586],[11.3828805,59.1225271],[11.3829342,59.1226203],[11.3826707,59.1226439]]]}},
{"type":"Feature","properties":{"id":"353","fid":null,"adresse":null,"matrikkel":null,"lopenr_1878":null,"gnr_bnr":null,"navn":null},"geometry":{"type":"Polygon","coordinates":[[[11.3826374,59.1225586],[11.3825888,59.1224469],[11.3828255,59.1224167],[11.3828805,59.1225271],[11.3826374,59.1225586]]]}},
{"type":"Feature","properties":{"id":"352","fid":null,"adresse":null,"matrikkel":null,"lopenr_1878":null,"gnr_bnr":null,"navn":null},"geometry":{"type":"Polygon","coordinates":[[[11.3823022,59.1225993],[11.382274,59.1224877],[11.3825888,59.1224469],[11.3826374,59.1225586],[11.3826471,59.122588],[11.3825785,59.122598],[11.3825709,59.1225671],[11.3823022,59.1225993]]]}},
{"type":"Feature","properties":{"id":"386","fid":null,"adresse":null,"matrikkel":null,"lopenr_1878":null,"gnr_bnr":null,"navn":null},"geometry":{"type":"Polygon","coordinates":[[[11.3823022,59.1225993],[11.3823239,59.1226794],[11.3826707,59.1226439],[11.3826471,59.122588],[11.3825785,59.122598],[11.3825709,59.1225671],[11.3823022,59.1225993]]]}},
{"type":"Feature","properties":{"id":"346","fid":null,"adresse":null,"matrikkel":null,"lopenr_1878":null,"gnr_bnr":null,"navn":null},"geometry":{"type":"Polygon","coordinates":[[[11.3822113,59.1226807],[11.382164,59.1225028],[11.3819695,59.1225251],[11.3820117,59.1226958],[11.3822113,59.1226807]]]}},
{"type":"Feature","properties":{"id":"383","fid":null,"adresse":null,"matrikkel":null,"lopenr_1878":null,"gnr_bnr":null,"navn":null},"geometry":{"type":"Polygon","coordinates":[[[11.3820117,59.1226958],[11.3817763,59.122709],[11.3817289,59.1225553],[11.3819695,59.1225251],[11.3820117,59.1226958]]]}},
{"type":"Feature","properties":{"id":"382","fid":null,"adresse":null,"matrikkel":null,"lopenr_1878":null,"gnr_bnr":null,"navn":null},"geometry":{"type":"Polygon","coordinates":[[[11.3817513,59.1226279],[11.381569,59.1226525],[11.3815869,59.1227241],[11.3817763,59.122709],[11.3817513,59.1226279]]]}},
{"type":"Feature","properties":{"id":"345","fid":null,"adresse":null,"matrikkel":null,"lopenr_1878":null,"gnr_bnr":null,"navn":null},"geometry":{"type":"Polygon","coordinates":[[[11.3815869,59.1227241],[11.3815191,59.1227313],[11.3814679,59.1225881],[11.3817289,59.1225553],[11.3817513,59.1226279],[11.381569,59.1226525],[11.3815869,59.1227241]]]}},
{"type":"Feature","properties":{"id":"344","fid":null,"adresse":null,"matrikkel":null,"lopenr_1878":null,"gnr_bnr":null,"navn":null},"geometry":{"type":"Polygon","coordinates":[[[11.3814679,59.1225881],[11.381221,59.1226151],[11.3812504,59.1226932],[11.3812657,59.1226945],[11.3812862,59.122753],[11.3815191,59.1227313],[11.3814679,59.1225881]]]}},
{"type":"Feature","properties":{"id":"324","fid":null,"adresse":null,"matrikkel":null,"lopenr_1878":null,"gnr_bnr":null,"navn":null},"geometry":{"type":"Polygon","coordinates":[[[11.3808166,59.1226656],[11.381221,59.1226151],[11.3812504,59.1226932],[11.3812657,59.1226945],[11.3812862,59.122753],[11.3808768,59.1227976],[11.3808166,59.1226656]]]}},
{"type":"Feature","properties":{"id":"379","fid":null,"adresse":null,"matrikkel":null,"lopenr_1878":null,"gnr_bnr":null,"navn":null},"geometry":{"type":"Polygon","coordinates":[[[11.3809267,59.1228469],[11.3811749,59.1228186],[11.3812069,59.1229066],[11.3812299,59.1229979],[11.3809766,59.1229283],[11.380951,59.1229243],[11.3809267,59.1228469]]]}},
{"type":"Feature","properties":{"id":"380","fid":null,"adresse":null,"matrikkel":null,"lopenr_1878":null,"gnr_bnr":null,"navn":null},"geometry":{"type":"Polygon","coordinates":[[[11.3811749,59.1228186],[11.3816752,59.12277],[11.3817123,59.1228928],[11.3815153,59.1230852],[11.3812299,59.1229979],[11.3812069,59.1229066],[11.3811749,59.1228186]]]}},
{"type":"Feature","properties":{"id":"Roed Herregaard","fid":null,"adresse":null,"matrikkel":null,"lopenr_1878":null,"gnr_bnr":null,"navn":null},"geometry":{"type":"Polygon","coordinates":[[[11.3683272,59.122512],[11.3684603,59.1227641],[11.3688134,59.1233157],[11.3696528,59.1231739],[11.3691154,59.122378],[11.3683272,59.122512]]]}},
{"type":"Feature","properties":{"id":"Kommandantboligen","fid":null,"adresse":null,"matrikkel":null,"lopenr_1878":null,"gnr_bnr":null,"navn":null},"geometry":{"type":"Polygon","coordinates":[[[11.400479,59.1197408],[11.4009908,59.1198143],[11.401083,59.1196672],[11.4012467,59.1196725],[11.401344,59.1195359],[11.4006377,59.1194282],[11.400479,59.1197408]]]}},
{"type":"Feature","properties":{"id":"Fredheim","fid":null,"adresse":null,"matrikkel":null,"lopenr_1878":null,"gnr_bnr":null,"navn":null},"geometry":{"type":"Polygon","coordinates":[[[11.3799376,59.1282625],[11.3803957,59.1282073],[11.3802472,59.1278541],[11.3796817,59.1279263],[11.3797457,59.1280524],[11.3798736,59.128269],[11.3799376,59.1282625]]]}},
{"type":"Feature","properties":{"id":"332","fid":null,"adresse":null,"matrikkel":null,"lopenr_1878":null,"gnr_bnr":null,"navn":null},"geometry":{"type":"Polygon","coordinates":[[[11.3767797,59.1227037],[11.3772353,59.1226643],[11.3772712,59.1229068],[11.3771462,59.1229172],[11.3768156,59.1229585],[11.3767234,59.1228403],[11.3766927,59.122772],[11.3767183,59.1227273],[11.3767797,59.1227037]]]}},
{"type":"Feature","properties":{"id":"384","fid":null,"adresse":null,"matrikkel":null,"lopenr_1878":null,"gnr_bnr":null,"navn":null},"geometry":{"type":"Polygon","coordinates":[[[11.3817289,59.1227602],[11.3819951,59.1227536],[11.3820181,59.1229033],[11.3818799,59.1229046],[11.3818799,59.1229296],[11.3817724,59.1229309],[11.3817289,59.1227602]]]}},
{"type":"Feature","properties":{"id":"381","fid":null,"adresse":null,"matrikkel":null,"lopenr_1878":null,"gnr_bnr":null,"navn":null},"geometry":{"type":"Polygon","coordinates":[[[11.3817724,59.1229309],[11.3817033,59.1229795],[11.3816701,59.1230399],[11.3817878,59.1230609],[11.3820181,59.1230741],[11.3820309,59.1229953],[11.3820386,59.1229532],[11.3820181,59.1229033],[11.3818799,59.1229046],[11.3818799,59.1229296],[11.3817724,59.1229309]]]}},
{"type":"Feature","properties":{"id":"401","fid":null,"adresse":null,"matrikkel":null,"lopenr_1878":null,"gnr_bnr":null,"navn":null},"geometry":{"type":"Polygon","coordinates":[[[11.3816701,59.1230399],[11.3816189,59.12312],[11.3819132,59.1232093],[11.3820028,59.1232198],[11.3820181,59.1230741],[11.3817878,59.1230609],[11.3816701,59.1230399]]]}},
{"type":"Feature","properties":{"id":"402","fid":null,"adresse":null,"matrikkel":null,"lopenr_1878":null,"gnr_bnr":null,"navn":null},"geometry":{"type":"Polygon","coordinates":[[[11.3820028,59.1232198],[11.382187,59.1232369],[11.3822177,59.1231148],[11.3820159,59.1230951],[11.3820028,59.1232198]]]}},
{"type":"Feature","properties":{"id":"435","fid":null,"adresse":null,"matrikkel":null,"lopenr_1878":null,"gnr_bnr":null,"navn":null},"geometry":{"type":"Polygon","coordinates":[[[11.3822177,59.1231148],[11.3822279,59.1230491],[11.3820245,59.1230347],[11.3820181,59.1230741],[11.3820159,59.1230951],[11.3822177,59.1231148]]]}},
{"type":"Feature","properties":{"id":"434","fid":null,"adresse":null,"matrikkel":null,"lopenr_1878":null,"gnr_bnr":null,"navn":null},"geometry":{"type":"Polygon","coordinates":[[[11.3822279,59.1230491],[11.3820245,59.1230347],[11.3820386,59.1229532],[11.3820181,59.1229033],[11.3820101,59.1228513],[11.3822305,59.1228403],[11.3822433,59.1229112],[11.3822587,59.1229427],[11.3822279,59.1230491]]]}},
{"type":"Feature","properties":{"id":"385","fid":null,"adresse":null,"matrikkel":null,"lopenr_1878":null,"gnr_bnr":null,"navn":null},"geometry":{"type":"Polygon","coordinates":[[[11.3820101,59.1228513],[11.3822305,59.1228403],[11.3822024,59.1227431],[11.3819951,59.1227536],[11.3820101,59.1228513]]]}},
{"type":"Feature","properties":{"id":"387","fid":null,"adresse":null,"matrikkel":null,"lopenr_1878":null,"gnr_bnr":null,"navn":null},"geometry":{"type":"Polygon","coordinates":[[[11.3823322,59.1227382],[11.3828082,59.1227093],[11.3828338,59.1228997],[11.3828978,59.1230757],[11.3823501,59.1230678],[11.3823757,59.1229352],[11.3823322,59.1227382]]]}},
{"type":"Feature","properties":{"id":"433","fid":null,"adresse":null,"matrikkel":null,"lopenr_1878":null,"gnr_bnr":null,"navn":null},"geometry":{"type":"Polygon","coordinates":[[[11.3823501,59.1230678],[11.3823271,59.1231519],[11.38256,59.1231663],[11.3825318,59.1233646],[11.3827238,59.1233804],[11.3828005,59.1233804],[11.3829438,59.1233869],[11.3831127,59.1233909],[11.3831511,59.1231532],[11.3831179,59.1230823],[11.3828978,59.1230757],[11.3823501,59.1230678]]]}},
{"type":"Feature","properties":{"id":"436","fid":null,"adresse":null,"matrikkel":null,"lopenr_1878":null,"gnr_bnr":null,"navn":null},"geometry":{"type":"Polygon","coordinates":[[[11.3823271,59.1231519],[11.3823118,59.123253],[11.3825452,59.1232706],[11.38256,59.1231663],[11.3823271,59.1231519]]]}},
{"type":"Feature","properties":{"id":"403","fid":null,"adresse":null,"matrikkel":null,"lopenr_1878":null,"gnr_bnr":null,"navn":null},"geometry":{"type":"Polygon","coordinates":[[[11.3822913,59.1233456],[11.3823118,59.123253],[11.3825452,59.1232706],[11.3825318,59.1233646],[11.3822913,59.1233456]]]}},
{"type":"Feature","properties":{"id":"389","fid":null,"adresse":null,"matrikkel":null,"lopenr_1878":null,"gnr_bnr":null,"navn":null},"geometry":{"type":"Polygon","coordinates":[[[11.3828082,59.1227093],[11.3829669,59.1227001],[11.3830795,59.1226804],[11.383233,59.1226633],[11.3833047,59.1228616],[11.3830948,59.12288],[11.3831179,59.1230823],[11.3828978,59.1230757],[11.3828338,59.1228997],[11.3828082,59.1227093]]]}},
{"type":"Feature","properties":{"id":"390","fid":null,"adresse":null,"matrikkel":null,"lopenr_1878":null,"gnr_bnr":null,"navn":null},"geometry":{"type":"Polygon","coordinates":[[[11.3833047,59.1228616],[11.3835657,59.1228485],[11.3834812,59.1226252],[11.383233,59.1226633],[11.3833047,59.1228616]]]}},
{"type":"Feature","properties":{"id":"440","fid":null,"adresse":null,"matrikkel":null,"lopenr_1878":null,"gnr_bnr":null,"navn":null},"geometry":{"type":"Polygon","coordinates":[[[11.3837397,59.1228406],[11.3842669,59.1228117],[11.3842259,59.1224965],[11.3837167,59.1225806],[11.3836988,59.122599],[11.3837397,59.1228406]]]}},
{"type":"Feature","properties":{"id":"404","fid":null,"adresse":null,"matrikkel":null,"lopenr_1878":null,"gnr_bnr":null,"navn":null},"geometry":{"type":"Polygon","coordinates":[[[11.3831511,59.1231532],[11.3836501,59.1231755],[11.3836501,59.1232674],[11.383622,59.1234145],[11.3831127,59.1233909],[11.3831511,59.1231532]]]}},
{"type":"Feature","properties":{"id":"445","fid":null,"adresse":null,"matrikkel":null,"lopenr_1878":null,"gnr_bnr":null,"navn":null},"geometry":{"type":"Polygon","coordinates":[[[11.3836501,59.1232674],[11.3843334,59.123274],[11.3843334,59.1234565],[11.383622,59.1234145],[11.3836501,59.1232674]]]}},
{"type":"Feature","properties":{"id":"444","fid":null,"adresse":null,"matrikkel":null,"lopenr_1878":null,"gnr_bnr":null,"navn":null},"geometry":{"type":"Polygon","coordinates":[[[11.3836501,59.1232674],[11.383668,59.1230915],[11.3843027,59.123056],[11.3843334,59.123274],[11.3836501,59.1232674]]]}},
{"type":"Feature","properties":{"id":"442","fid":null,"adresse":null,"matrikkel":null,"lopenr_1878":null,"gnr_bnr":null,"navn":null},"geometry":{"type":"Polygon","coordinates":[[[11.3843027,59.123056],[11.3842848,59.1229247],[11.3831065,59.1229826],[11.3831179,59.1230823],[11.3831511,59.1231532],[11.3836501,59.1231755],[11.383668,59.1230915],[11.3843027,59.123056]]]}},
{"type":"Feature","properties":{"id":"441","fid":null,"adresse":null,"matrikkel":null,"lopenr_1878":null,"gnr_bnr":null,"navn":null},"geometry":{"type":"Polygon","coordinates":[[[11.3842669,59.1228117],[11.3842848,59.1229247],[11.3831065,59.1229826],[11.3830948,59.12288],[11.3833047,59.1228616],[11.3835657,59.1228485],[11.3837397,59.1228406],[11.3842669,59.1228117]]]}},
{"type":"Feature","properties":{"id":"395","fid":null,"adresse":null,"matrikkel":null,"lopenr_1878":null,"gnr_bnr":null,"navn":null},"geometry":{"type":"Polygon","coordinates":[[[11.3854312,59.1223048],[11.3855438,59.1226778],[11.3851676,59.1227316],[11.3851523,59.1226948],[11.3843641,59.1226975],[11.3843641,59.1224821],[11.3854312,59.1223048]]]}},
{"type":"Feature","properties":{"id":"453","fid":null,"adresse":null,"matrikkel":null,"lopenr_1878":null,"gnr_bnr":null,"navn":null},"geometry":{"type":"Polygon","coordinates":[[[11.3855126,59.1225743],[11.3855848,59.1225714],[11.3855643,59.1224479],[11.3854792,59.1224637],[11.3855126,59.1225743]]]}},
{"type":"Feature","properties":{"id":"454","fid":null,"adresse":null,"matrikkel":null,"lopenr_1878":null,"gnr_bnr":null,"navn":null},"geometry":{"type":"Polygon","coordinates":[[[11.3855899,59.1226239],[11.3857562,59.1226029],[11.385769,59.1226909],[11.3857434,59.122725],[11.3856052,59.1227342],[11.3855899,59.1226239]]]}},
{"type":"Feature","properties":{"id":"443","fid":null,"adresse":null,"matrikkel":null,"lopenr_1878":null,"gnr_bnr":null,"navn":"Folkeskolen"},"geometry":{"type":"Polygon","coordinates":[[[11.3845151,59.1232517],[11.38538,59.1232504],[11.3853828,59.1230468],[11.3858765,59.1230245],[11.3858324,59.1228587],[11.3857901,59.1228409],[11.3853852,59.1228669],[11.3845023,59.1229142],[11.3845151,59.1232517]]]}},
{"type":"Feature","properties":{"id":"408","fid":null,"adresse":null,"matrikkel":null,"lopenr_1878":null,"gnr_bnr":null,"navn":"Theater"},"geometry":{"type":"Polygon","coordinates":[[[11.3844767,59.1234552],[11.3854082,59.1235616],[11.3854594,59.1233554],[11.3845176,59.1233567],[11.3844767,59.1234552]]]}},
{"type":"Feature","properties":{"id":"456","fid":null,"adresse":null,"matrikkel":null,"lopenr_1878":null,"gnr_bnr":null,"navn":null},"geometry":{"type":"Polygon","coordinates":[[[11.3858765,59.1230245],[11.3859558,59.1232228],[11.38592,59.1232504],[11.38538,59.1232504],[11.3853828,59.1230468],[11.3858765,59.1230245]]]}},
{"type":"Feature","properties":{"id":"457","fid":null,"adresse":null,"matrikkel":null,"lopenr_1878":null,"gnr_bnr":null,"navn":null},"geometry":{"type":"Polygon","coordinates":[[[11.3855413,59.1233751],[11.3855848,59.1233567],[11.3859379,59.1233528],[11.3859993,59.1233738],[11.38603,59.1234854],[11.3857972,59.1235012],[11.3857588,59.1234382],[11.3855336,59.1234474],[11.3855413,59.1233751]]]}},
{"type":"Feature","properties":{"id":"409","fid":null,"adresse":null,"matrikkel":null,"lopenr_1878":null,"gnr_bnr":null,"navn":null},"geometry":{"type":"Polygon","coordinates":[[[11.3855003,59.1235734],[11.3855336,59.1234474],[11.3857588,59.1234382],[11.3857972,59.1235012],[11.3858554,59.1234973],[11.3858611,59.1236036],[11.3857537,59.1236049],[11.3855003,59.1235734]]]}},
{"type":"Feature","properties":{"id":"405","fid":null,"adresse":null,"matrikkel":null,"lopenr_1878":null,"gnr_bnr":null,"navn":null},"geometry":{"type":"Polygon","coordinates":[[[11.3828133,59.1235944],[11.3838984,59.1236496],[11.3839086,59.123689],[11.3840084,59.1236942],[11.3840238,59.1235064],[11.3828236,59.1234474],[11.3828133,59.1235944]]]}},
{"type":"Feature","properties":{"id":"446","fid":null,"adresse":null,"matrikkel":null,"lopenr_1878":null,"gnr_bnr":null,"navn":"Missionhuset"},"geometry":{"type":"Polygon","coordinates":[[[11.3846008,59.1239254],[11.3850563,59.1239897],[11.3851459,59.1237796],[11.3849898,59.1237599],[11.3848081,59.123664],[11.3845573,59.1236851],[11.3846008,59.1239254]]]}},
{"type":"Feature","properties":{"id":"406","fid":null,"adresse":null,"matrikkel":null,"lopenr_1878":null,"gnr_bnr":null,"navn":null},"geometry":{"type":"Polygon","coordinates":[[[11.3849105,59.1235826],[11.3848874,59.1236443],[11.3850256,59.1236575],[11.3850666,59.1235958],[11.3849105,59.1235826]]]}},
{"type":"Feature","properties":{"id":"407","fid":null,"adresse":null,"matrikkel":null,"lopenr_1878":null,"gnr_bnr":null,"navn":null},"geometry":{"type":"Polygon","coordinates":[[[11.3852022,59.1236089],[11.3851689,59.1236759],[11.385192,59.1236824],[11.3851638,59.1237533],[11.3853046,59.1237691],[11.3853148,59.1237455],[11.3852278,59.1237336],[11.3852483,59.1236903],[11.385412,59.1237087],[11.3854376,59.1236338],[11.3852022,59.1236089]]]}},
{"type":"Feature","properties":{"id":"410","fid":null,"adresse":null,"matrikkel":null,"lopenr_1878":null,"gnr_bnr":null,"navn":null},"geometry":{"type":"Polygon","coordinates":[[[11.3854376,59.1236338],[11.3856321,59.123664],[11.3855707,59.1238072],[11.3854146,59.1237862],[11.3854274,59.1237533],[11.385412,59.1237087],[11.3854376,59.1236338]]]}},
{"type":"Feature","properties":{"id":"418","fid":null,"adresse":null,"matrikkel":null,"lopenr_1878":null,"gnr_bnr":null,"navn":null},"geometry":{"type":"Polygon","coordinates":[[[11.3850563,59.1239897],[11.385563,59.1240633],[11.3856986,59.1238216],[11.3851638,59.1237533],[11.3851459,59.1237796],[11.3850563,59.1239897]]]}},
{"type":"Feature","properties":{"id":"411","fid":null,"adresse":null,"matrikkel":null,"lopenr_1878":null,"gnr_bnr":null,"navn":null},"geometry":{"type":"Polygon","coordinates":[[[11.3856321,59.123664],[11.3858317,59.1236956],[11.3857217,59.1239136],[11.3856482,59.1239116],[11.3856986,59.1238216],[11.3855707,59.1238072],[11.3856321,59.123664]]]}},
{"type":"Feature","properties":{"id":"412","fid":null,"adresse":null,"matrikkel":null,"lopenr_1878":null,"gnr_bnr":null,"navn":null},"geometry":{"type":"Polygon","coordinates":[[[11.3858317,59.1236956],[11.3860211,59.1237297],[11.385952,59.1238532],[11.3857648,59.1238281],[11.3858317,59.1236956]]]}},
{"type":"Feature","properties":{"id":"413","fid":null,"adresse":null,"matrikkel":null,"lopenr_1878":null,"gnr_bnr":null,"navn":null},"geometry":{"type":"Polygon","coordinates":[[[11.385952,59.1238532],[11.3860825,59.1238742],[11.386149,59.1237494],[11.3860211,59.1237297],[11.385952,59.1238532]]]}},
{"type":"Feature","properties":{"id":"458","fid":null,"adresse":null,"matrikkel":null,"lopenr_1878":null,"gnr_bnr":null,"navn":null},"geometry":{"type":"Polygon","coordinates":[[[11.3859597,59.1241184],[11.385563,59.1240633],[11.3856482,59.1239116],[11.3857217,59.1239136],[11.3857295,59.1238981],[11.3860544,59.1239385],[11.3859597,59.1241184]]]}},
{"type":"Feature","properties":{"id":"414","fid":null,"adresse":null,"matrikkel":null,"lopenr_1878":null,"gnr_bnr":null,"navn":null},"geometry":{"type":"Polygon","coordinates":[[[11.3866813,59.1240935],[11.3867786,59.1238991],[11.3863282,59.1238453],[11.3862719,59.1238637],[11.3861797,59.1240331],[11.3866813,59.1240935]]]}},
{"type":"Feature","properties":{"id":"459","fid":null,"adresse":null,"matrikkel":null,"lopenr_1878":null,"gnr_bnr":null,"navn":null},"geometry":{"type":"Polygon","coordinates":[[[11.3861797,59.1240331],[11.3861337,59.124125],[11.3861542,59.1241447],[11.386625,59.1242117],[11.3866813,59.1240935],[11.3861797,59.1240331]]]}},
{"type":"Feature","properties":{"id":"479","fid":null,"adresse":null,"matrikkel":null,"lopenr_1878":null,"gnr_bnr":null,"navn":null},"geometry":{"type":"Polygon","coordinates":[[[11.3867786,59.1238991],[11.3872699,59.1239582],[11.3873339,59.1239884],[11.3872699,59.1241788],[11.3866813,59.1240935],[11.3867786,59.1238991]]]}},
{"type":"Feature","properties":{"id":"480","fid":null,"adresse":null,"matrikkel":null,"lopenr_1878":null,"gnr_bnr":null,"navn":null},"geometry":{"type":"Polygon","coordinates":[[[11.386625,59.1242117],[11.3866813,59.1240935],[11.3872699,59.1241788],[11.3872507,59.1242806],[11.3872046,59.1242977],[11.386625,59.1242117]]]}},
{"type":"Feature","properties":{"id":"421","fid":null,"adresse":null,"matrikkel":null,"lopenr_1878":null,"gnr_bnr":null,"navn":null},"geometry":{"type":"Polygon","coordinates":[[[11.3870997,59.1246378],[11.3866033,59.1245616],[11.3867184,59.1243371],[11.3871765,59.1244159],[11.3872123,59.1244408],[11.3870997,59.1246378]]]}},
{"type":"Feature","properties":{"id":"419","fid":null,"adresse":null,"matrikkel":null,"lopenr_1878":null,"gnr_bnr":null,"navn":null},"geometry":{"type":"Polygon","coordinates":[[[11.3866033,59.1245616],[11.3862623,59.1245134],[11.3863621,59.1242869],[11.3867184,59.1243371],[11.3866033,59.1245616]]]}},
{"type":"Feature","properties":{"id":"460","fid":null,"adresse":null,"matrikkel":null,"lopenr_1878":null,"gnr_bnr":null,"navn":null},"geometry":{"type":"Polygon","coordinates":[[[11.3863621,59.1242869],[11.3861241,59.1242553],[11.3860627,59.1242691],[11.3859744,59.1244641],[11.3862623,59.1245134],[11.3863621,59.1242869]]]}},
{"type":"Feature","properties":{"id":"461","fid":null,"adresse":null,"matrikkel":null,"lopenr_1878":null,"gnr_bnr":null,"navn":null},"geometry":{"type":"Polygon","coordinates":[[[11.3859744,59.1244641],[11.3858707,59.1246552],[11.3858938,59.1246769],[11.3862776,59.1247202],[11.3863429,59.1245745],[11.3862392,59.1245607],[11.3862623,59.1245134],[11.3859744,59.1244641]]]}},
{"type":"Feature","properties":{"id":"482","fid":null,"adresse":null,"matrikkel":null,"lopenr_1878":null,"gnr_bnr":null,"navn":null},"geometry":{"type":"Polygon","coordinates":[[[11.3862623,59.1245134],[11.3862392,59.1245607],[11.3863429,59.1245745],[11.3862776,59.1247202],[11.3869379,59.1248148],[11.387007,59.124803],[11.3870997,59.1246378],[11.3866033,59.1245616],[11.3862623,59.1245134]]]}},
{"type":"Feature","properties":{"id":"417","fid":null,"adresse":null,"matrikkel":null,"lopenr_1878":null,"gnr_bnr":null,"navn":null},"geometry":{"type":"Polygon","coordinates":[[[11.385817,59.1244149],[11.3852873,59.1243243],[11.3853909,59.1241391],[11.3859091,59.1242199],[11.385817,59.1244149]]]}},
{"type":"Feature","properties":{"id":"416","fid":null,"adresse":null,"matrikkel":null,"lopenr_1878":null,"gnr_bnr":null,"navn":null},"geometry":{"type":"Polygon","coordinates":[[[11.3852873,59.1243243],[11.3848727,59.1242475],[11.3849648,59.12408],[11.3853909,59.1241391],[11.3852873,59.1243243]]]}},
{"type":"Feature","properties":{"id":"417","fid":null,"adresse":null,"matrikkel":null,"lopenr_1878":null,"gnr_bnr":null,"navn":null},"geometry":{"type":"Polygon","coordinates":[[[11.3848727,59.1242475],[11.3846501,59.1242159],[11.3846117,59.1240583],[11.3846462,59.1240347],[11.3849648,59.12408],[11.3848727,59.1242475]]]}},
{"type":"Feature","properties":{"id":"415","fid":null,"adresse":null,"matrikkel":null,"lopenr_1878":null,"gnr_bnr":null,"navn":null},"geometry":{"type":"Polygon","coordinates":[[[11.3846501,59.1242159],[11.3846885,59.1245035],[11.3856827,59.1246395],[11.385817,59.1244149],[11.3852873,59.1243243],[11.3848727,59.1242475],[11.3846501,59.1242159]]]}},
{"type":"Feature","properties":{"id":"448","fid":null,"adresse":null,"matrikkel":null,"lopenr_1878":null,"gnr_bnr":null,"navn":null},"geometry":{"type":"Polygon","coordinates":[[[11.3844797,59.1245269],[11.3841487,59.1245402],[11.384094,59.1242876],[11.3841429,59.1242743],[11.3844222,59.124264],[11.3844797,59.1245269]]]}},
{"type":"Feature","properties":{"id":"432","fid":null,"adresse":null,"matrikkel":null,"lopenr_1878":null,"gnr_bnr":null,"navn":null},"geometry":{"type":"Polygon","coordinates":[[[11.3804665,59.1248593],[11.3806882,59.124781],[11.3807832,59.124846],[11.3809444,59.1247988],[11.3809905,59.1248372],[11.3810222,59.1248283],[11.3810941,59.1248859],[11.3810711,59.1248918],[11.3811258,59.1249376],[11.3809732,59.1249864],[11.3808465,59.1248918],[11.3807832,59.1249096],[11.3807141,59.1248593],[11.3805299,59.1249125],[11.3804665,59.1248593]]]}},
{"type":"Feature","properties":{"id":"431","fid":null,"adresse":null,"matrikkel":null,"lopenr_1878":null,"gnr_bnr":null,"navn":null},"geometry":{"type":"Polygon","coordinates":[[[11.3813907,59.1256586],[11.3816382,59.1256143],[11.3815893,59.1255434],[11.3815778,59.1254562],[11.3815634,59.1254193],[11.3816123,59.1254104],[11.381572,59.1253528],[11.3815317,59.1253587],[11.3815058,59.1253173],[11.381336,59.1253395],[11.3814079,59.1254754],[11.3813475,59.1255818],[11.3813907,59.1256586]]]}},
{"type":"Feature","properties":{"id":"420","fid":null,"adresse":null,"matrikkel":null,"lopenr_1878":null,"gnr_bnr":null,"navn":null},"geometry":{"type":"Polygon","coordinates":[[[11.3834405,59.1247027],[11.383475,59.1246747],[11.3844567,59.1246363],[11.3844941,59.124654],[11.3845575,59.125177],[11.38452,59.1252065],[11.3835499,59.1252464],[11.3835124,59.1252228],[11.3834405,59.1247027]]]}},
{"type":"Feature","properties":{"id":"421","fid":null,"adresse":null,"matrikkel":null,"lopenr_1878":null,"gnr_bnr":null,"navn":null},"geometry":{"type":"Polygon","coordinates":[[[11.3847043,59.1246496],[11.3847619,59.1246244],[11.3850901,59.1246702],[11.384877,59.1250898],[11.3847561,59.1250795],[11.3847043,59.1246496]]]}},
{"type":"Feature","properties":{"id":"463","fid":null,"adresse":null,"matrikkel":null,"lopenr_1878":null,"gnr_bnr":null,"navn":null},"geometry":{"type":"Polygon","coordinates":[[[11.3850958,59.124818],[11.3851736,59.1246835],[11.3856313,59.1247426],[11.3855565,59.12488],[11.3850958,59.124818]]]}},
{"type":"Feature","properties":{"id":"464","fid":null,"adresse":null,"matrikkel":null,"lopenr_1878":null,"gnr_bnr":null,"navn":null},"geometry":{"type":"Polygon","coordinates":[[[11.3850152,59.1249568],[11.3850958,59.124818],[11.3855565,59.12488],[11.3854759,59.1250174],[11.3850152,59.1249568]]]}},
{"type":"Feature","properties":{"id":"466","fid":null,"adresse":null,"matrikkel":null,"lopenr_1878":null,"gnr_bnr":null,"navn":null},"geometry":{"type":"Polygon","coordinates":[[[11.3849346,59.1251445],[11.3850152,59.1249568],[11.3854759,59.1250174],[11.3853607,59.1252538],[11.3851707,59.1252242],[11.3851851,59.1251829],[11.3849346,59.1251445]]]}},
{"type":"Feature","properties":{"id":"485","fid":null,"adresse":null,"matrikkel":null,"lopenr_1878":null,"gnr_bnr":null,"navn":null},"geometry":{"type":"Polygon","coordinates":[[[11.3866965,59.1251002],[11.3868808,59.1249391],[11.3868433,59.1248948],[11.3864317,59.1248401],[11.3862791,59.125013],[11.3866965,59.1251002]]]}},
{"type":"Feature","properties":{"id":"486","fid":null,"adresse":null,"matrikkel":null,"lopenr_1878":null,"gnr_bnr":null,"navn":null},"geometry":{"type":"Polygon","coordinates":[[[11.3862791,59.125013],[11.3861495,59.1251666],[11.3865468,59.1252464],[11.3866965,59.1251002],[11.3862791,59.125013]]]}},
{"type":"Feature","properties":{"id":"490","fid":null,"adresse":null,"matrikkel":null,"lopenr_1878":null,"gnr_bnr":null,"navn":null},"geometry":{"type":"Polygon","coordinates":[[[11.3861495,59.1251666],[11.3860344,59.1252922],[11.3863971,59.1253676],[11.3865468,59.1252464],[11.3861495,59.1251666]]]}},
{"type":"Feature","properties":{"id":"491","fid":null,"adresse":null,"matrikkel":null,"lopenr_1878":null,"gnr_bnr":null,"navn":null},"geometry":{"type":"Polygon","coordinates":[[[11.3860344,59.1252922],[11.3859451,59.1253941],[11.3862877,59.1254651],[11.3863971,59.1253676],[11.3860344,59.1252922]]]}},
{"type":"Feature","properties":{"id":"465","fid":null,"adresse":null,"matrikkel":null,"lopenr_1878":null,"gnr_bnr":null,"navn":null},"geometry":{"type":"Polygon","coordinates":[[[11.3859451,59.1253941],[11.3855421,59.1253188],[11.3855162,59.1252996],[11.3856457,59.1250706],[11.3861495,59.1251666],[11.3859451,59.1253941]]]}},
{"type":"Feature","properties":{"id":"423","fid":null,"adresse":null,"matrikkel":null,"lopenr_1878":null,"gnr_bnr":null,"navn":null},"geometry":{"type":"Polygon","coordinates":[[[11.3858156,59.1247677],[11.3857551,59.1248623],[11.3860257,59.1249066],[11.3860056,59.1249568],[11.3862791,59.125013],[11.3864317,59.1248401],[11.3858156,59.1247677]]]}},
{"type":"Feature","properties":{"id":"422","fid":null,"adresse":null,"matrikkel":null,"lopenr_1878":null,"gnr_bnr":null,"navn":null},"geometry":{"type":"Polygon","coordinates":[[[11.3857551,59.1248623],[11.3856457,59.1250706],[11.3861495,59.1251666],[11.3862791,59.125013],[11.3860056,59.1249568],[11.3860257,59.1249066],[11.3857551,59.1248623]]]}},
{"type":"Feature","properties":{"id":"493","fid":null,"adresse":null,"matrikkel":null,"lopenr_1878":null,"gnr_bnr":null,"navn":null},"geometry":{"type":"Polygon","coordinates":[[[11.3858587,59.1258019],[11.3862503,59.125499],[11.3856803,59.1253764],[11.3856457,59.1254222],[11.3855277,59.1254045],[11.3854557,59.1254163],[11.3853578,59.1256039],[11.3858587,59.1258019]]]}},
{"type":"Feature","properties":{"id":"467","fid":null,"adresse":null,"matrikkel":null,"lopenr_1878":null,"gnr_bnr":null,"navn":null},"geometry":{"type":"Polygon","coordinates":[[[11.3851995,59.1255404],[11.3853118,59.1253543],[11.3848626,59.1252863],[11.3847935,59.1254813],[11.3851995,59.1255404]]]}},
{"type":"Feature","properties":{"id":"424","fid":null,"adresse":null,"matrikkel":null,"lopenr_1878":null,"gnr_bnr":null,"navn":null},"geometry":{"type":"Polygon","coordinates":[[[11.3847043,59.1254665],[11.3841573,59.1253868],[11.3841544,59.1253277],[11.3844625,59.1253144],[11.3844941,59.1252597],[11.3847763,59.1253011],[11.3847043,59.1254665]]]}},
{"type":"Feature","properties":{"id":"428","fid":null,"adresse":null,"matrikkel":null,"lopenr_1878":null,"gnr_bnr":null,"navn":null},"geometry":{"type":"Polygon","coordinates":[[[11.3848076,59.1257328],[11.385084,59.1257738],[11.3851595,59.1256198],[11.3848875,59.1255799],[11.3848076,59.1257328]]]}},
{"type":"Feature","properties":{"id":"427","fid":null,"adresse":null,"matrikkel":null,"lopenr_1878":null,"gnr_bnr":null,"navn":null},"geometry":{"type":"Polygon","coordinates":[[[11.3843585,59.1257195],[11.384596,59.1257461],[11.3846025,59.1257051],[11.3846003,59.12554],[11.38446,59.1255267],[11.3843585,59.1257195]]]}},
{"type":"Feature","properties":{"id":"426","fid":null,"adresse":null,"matrikkel":null,"lopenr_1878":null,"gnr_bnr":null,"navn":null},"geometry":{"type":"Polygon","coordinates":[[[11.38446,59.1255267],[11.3842764,59.1254979],[11.3841987,59.1256453],[11.3843828,59.1256734],[11.38446,59.1255267]]]}},
{"type":"Feature","properties":{"id":"425","fid":null,"adresse":null,"matrikkel":null,"lopenr_1878":null,"gnr_bnr":null,"navn":null},"geometry":{"type":"Polygon","coordinates":[[[11.3843585,59.1257195],[11.3838381,59.1256442],[11.3838532,59.1256032],[11.3840562,59.1254603],[11.3842764,59.1254979],[11.3841987,59.1256453],[11.3843828,59.1256734],[11.3843585,59.1257195]]]}},
{"type":"Feature","properties":{"id":"438","fid":null,"adresse":null,"matrikkel":null,"lopenr_1878":null,"gnr_bnr":null,"navn":null},"geometry":{"type":"Polygon","coordinates":[[[11.3838381,59.1256442],[11.3835596,59.1256065],[11.383525,59.1253794],[11.3835639,59.1253517],[11.3840907,59.1253284],[11.3840972,59.1253882],[11.3840562,59.1254603],[11.3838532,59.1256032],[11.3838381,59.1256442]]]}},
{"type":"Feature","properties":{"id":"449","fid":null,"adresse":null,"matrikkel":null,"lopenr_1878":null,"gnr_bnr":null,"navn":null},"geometry":{"type":"Polygon","coordinates":[[[11.3835596,59.1256065],[11.3836611,59.1263411],[11.3837258,59.1263633],[11.384149,59.1263455],[11.3845593,59.1257672],[11.3845575,59.1257418],[11.3843585,59.1257195],[11.3838381,59.1256442],[11.3835596,59.1256065]]]}},
{"type":"Feature","properties":{"id":"511","fid":null,"adresse":null,"matrikkel":null,"lopenr_1878":null,"gnr_bnr":null,"navn":null},"geometry":{"type":"Polygon","coordinates":[[[11.3822964,59.1268264],[11.3824195,59.1268242],[11.3824627,59.1267965],[11.3825707,59.1267921],[11.3826052,59.1268153],[11.3827261,59.1268065],[11.3827391,59.1268807],[11.3826592,59.1268829],[11.382657,59.1269361],[11.3827563,59.1269294],[11.3827671,59.1269893],[11.3829485,59.1270868],[11.3829658,59.1272796],[11.3824433,59.1272906],[11.3824066,59.1271167],[11.3823396,59.1270059],[11.3823353,59.1269538],[11.3824109,59.1269494],[11.3824044,59.1269029],[11.3823094,59.1269006],[11.3822964,59.1268264]]]}},
{"type":"Feature","properties":{"id":"497","fid":null,"adresse":null,"matrikkel":null,"lopenr_1878":null,"gnr_bnr":null,"navn":null},"geometry":{"type":"Polygon","coordinates":[[[11.3850602,59.1259688],[11.3854618,59.1261118],[11.385736,59.1258979],[11.3853128,59.1257472],[11.3850602,59.1259688]]]}},
{"type":"Feature","properties":{"id":"498","fid":null,"adresse":null,"matrikkel":null,"lopenr_1878":null,"gnr_bnr":null,"navn":null},"geometry":{"type":"Polygon","coordinates":[[[11.3850602,59.1259688],[11.3847946,59.1261904],[11.3851962,59.1263311],[11.3854618,59.1261118],[11.3850602,59.1259688]]]}},
{"type":"Feature","properties":{"id":"499","fid":null,"adresse":null,"matrikkel":null,"lopenr_1878":null,"gnr_bnr":null,"navn":null},"geometry":{"type":"Polygon","coordinates":[[[11.3847946,59.1261904],[11.3845182,59.1264275],[11.3848637,59.1265561],[11.3849263,59.1265572],[11.3851962,59.1263311],[11.3847946,59.1261904]]]}},
{"type":"Feature","properties":{"id":"505","fid":null,"adresse":null,"matrikkel":null,"lopenr_1878":null,"gnr_bnr":null,"navn":null},"geometry":{"type":"Polygon","coordinates":[[[11.384393,59.1265228],[11.3847666,59.126648],[11.3847709,59.1266824],[11.3845053,59.1269017],[11.3841166,59.1267599],[11.384393,59.1265228]]]}},
{"type":"Feature","properties":{"id":"506","fid":null,"adresse":null,"matrikkel":null,"lopenr_1878":null,"gnr_bnr":null,"navn":null},"geometry":{"type":"Polygon","coordinates":[[[11.3841166,59.1267599],[11.3838554,59.1269771],[11.3841922,59.1271034],[11.3842656,59.1270967],[11.3845053,59.1269017],[11.3841166,59.1267599]]]}},
{"type":"Feature","properties":{"id":"510","fid":null,"adresse":null,"matrikkel":null,"lopenr_1878":null,"gnr_bnr":null,"navn":null},"geometry":{"type":"Polygon","coordinates":[[[11.3838554,59.1269771],[11.3833674,59.127315],[11.3837625,59.1274535],[11.3841922,59.1271034],[11.3838554,59.1269771]]]}},
{"type":"Feature","properties":{"id":"515","fid":null,"adresse":null,"matrikkel":null,"lopenr_1878":null,"gnr_bnr":null,"navn":null},"geometry":{"type":"Polygon","coordinates":[[[11.3833674,59.127315],[11.3832335,59.1274153],[11.3836265,59.1275615],[11.3837625,59.1274535],[11.3833674,59.127315]]]}},
{"type":"Feature","properties":{"id":"516","fid":null,"adresse":null,"matrikkel":null,"lopenr_1878":null,"gnr_bnr":null,"navn":null},"geometry":{"type":"Polygon","coordinates":[[[11.3832335,59.1274153],[11.3830802,59.1275205],[11.3835013,59.1276779],[11.3836265,59.1275615],[11.3832335,59.1274153]]]}},
{"type":"Feature","properties":{"id":"517","fid":null,"adresse":null,"matrikkel":null,"lopenr_1878":null,"gnr_bnr":null,"navn":null},"geometry":{"type":"Polygon","coordinates":[[[11.3832638,59.1278695],[11.3828514,59.1277222],[11.3829679,59.1276147],[11.3830802,59.1275205],[11.3835013,59.1276779],[11.3832638,59.1278695]]]}},
{"type":"Feature","properties":{"id":"522","fid":null,"adresse":null,"matrikkel":null,"lopenr_1878":null,"gnr_bnr":null,"navn":null},"geometry":{"type":"Polygon","coordinates":[[[11.3828514,59.1277222],[11.382752,59.1278363],[11.383145,59.127977],[11.3832638,59.1278695],[11.3828514,59.1277222]]]}},
{"type":"Feature","properties":{"id":"523","fid":null,"adresse":null,"matrikkel":null,"lopenr_1878":null,"gnr_bnr":null,"navn":null},"geometry":{"type":"Polygon","coordinates":[[[11.3827369,59.1279582],[11.3828359,59.1278663],[11.3831248,59.1279698],[11.3830306,59.1280579],[11.3827369,59.1279582]]]}},
{"type":"Feature","properties":{"id":"524","fid":null,"adresse":null,"matrikkel":null,"lopenr_1878":null,"gnr_bnr":null,"navn":null},"geometry":{"type":"Polygon","coordinates":[[[11.3827153,59.1281011],[11.3828338,59.1279911],[11.3830306,59.1280579],[11.3830522,59.1280645],[11.3829291,59.1281698],[11.3827153,59.1281011]]]}},
{"type":"Feature","properties":{"id":"525","fid":null,"adresse":null,"matrikkel":null,"lopenr_1878":null,"gnr_bnr":null,"navn":null},"geometry":{"type":"Polygon","coordinates":[[[11.3827153,59.1281011],[11.3825901,59.1280557],[11.3826549,59.1279327],[11.382752,59.1278363],[11.3828359,59.1278663],[11.3827369,59.1279582],[11.3828338,59.1279911],[11.3827153,59.1281011]]]}},
{"type":"Feature","properties":{"id":"520","fid":null,"adresse":null,"matrikkel":null,"lopenr_1878":null,"gnr_bnr":null,"navn":null},"geometry":{"type":"Polygon","coordinates":[[[11.3831758,59.1282396],[11.3832298,59.1282629],[11.3833075,59.1282075],[11.383409,59.1282407],[11.3835299,59.1282119],[11.383342,59.1280789],[11.3832146,59.1281698],[11.3831758,59.1282396]]]}},
{"type":"Feature","properties":{"id":"518","fid":null,"adresse":null,"matrikkel":null,"lopenr_1878":null,"gnr_bnr":null,"navn":null},"geometry":{"type":"Polygon","coordinates":[[[11.383342,59.1280789],[11.3835795,59.1278806],[11.3837264,59.1279227],[11.3837134,59.127946],[11.3837825,59.127987],[11.38383,59.1279515],[11.3839531,59.1279936],[11.3836616,59.1282307],[11.3835493,59.1281864],[11.3835299,59.1282119],[11.383342,59.1280789]]]}},
{"type":"Feature","properties":{"id":"519","fid":null,"adresse":null,"matrikkel":null,"lopenr_1878":null,"gnr_bnr":null,"navn":null},"geometry":{"type":"Polygon","coordinates":[[[11.3835795,59.1278806],[11.3837069,59.1277831],[11.3837674,59.127772],[11.3842662,59.1279925],[11.384115,59.1281255],[11.3838952,59.1280407],[11.3839531,59.1279936],[11.38383,59.1279515],[11.3837825,59.127987],[11.3837134,59.127946],[11.3837264,59.1279227],[11.3835795,59.1278806]]]}},
{"type":"Feature","properties":{"id":"527","fid":null,"adresse":null,"matrikkel":null,"lopenr_1878":null,"gnr_bnr":null,"navn":null},"geometry":{"type":"Polygon","coordinates":[[[11.3845674,59.1275787],[11.3847876,59.127705],[11.3849863,59.1275421],[11.3847466,59.1274502],[11.3845674,59.1275787]]]}},
{"type":"Feature","properties":{"id":"526","fid":null,"adresse":null,"matrikkel":null,"lopenr_1878":null,"gnr_bnr":null,"navn":null},"geometry":{"type":"Polygon","coordinates":[[[11.3840626,59.1279025],[11.3842662,59.1279925],[11.3842245,59.1280291],[11.3849388,59.1282234],[11.3853469,59.1278831],[11.3847876,59.127705],[11.3845674,59.1275787],[11.3840626,59.1279025]]]}},
{"type":"Feature","properties":{"id":"514","fid":null,"adresse":null,"matrikkel":null,"lopenr_1878":null,"gnr_bnr":null,"navn":null},"geometry":{"type":"Polygon","coordinates":[[[11.3838895,59.1276522],[11.3841846,59.1277625],[11.3844014,59.1276335],[11.3840698,59.1275092],[11.3838895,59.1276522]]]}},
{"type":"Feature","properties":{"id":"513","fid":null,"adresse":null,"matrikkel":null,"lopenr_1878":null,"gnr_bnr":null,"navn":null},"geometry":{"type":"Polygon","coordinates":[[[11.3840698,59.1275092],[11.3844014,59.1276335],[11.3845562,59.1275316],[11.3846455,59.1274652],[11.3842921,59.1273334],[11.3840698,59.1275092]]]}},
{"type":"Feature","properties":{"id":"509","fid":null,"adresse":null,"matrikkel":null,"lopenr_1878":null,"gnr_bnr":null,"navn":null},"geometry":{"type":"Polygon","coordinates":[[[11.3842921,59.1273334],[11.3843558,59.1272764],[11.3847184,59.127411],[11.3846455,59.1274652],[11.3842921,59.1273334]]]}},
{"type":"Feature","properties":{"id":"508","fid":null,"adresse":null,"matrikkel":null,"lopenr_1878":null,"gnr_bnr":null,"navn":null},"geometry":{"type":"Polygon","coordinates":[[[11.3843558,59.1272764],[11.3845052,59.1271493],[11.3848678,59.1272867],[11.3847184,59.127411],[11.3843558,59.1272764]]]}},
{"type":"Feature","properties":{"id":"534","fid":null,"adresse":null,"matrikkel":null,"lopenr_1878":null,"gnr_bnr":null,"navn":null},"geometry":{"type":"Polygon","coordinates":[[[11.3847466,59.1274502],[11.3849863,59.1275421],[11.3851101,59.1275849],[11.3852631,59.1274634],[11.3848878,59.1273344],[11.3847466,59.1274502]]]}},
{"type":"Feature","properties":{"id":"535","fid":null,"adresse":null,"matrikkel":null,"lopenr_1878":null,"gnr_bnr":null,"navn":null},"geometry":{"type":"Polygon","coordinates":[[[11.3852631,59.1274634],[11.385602,59.1275999],[11.3856147,59.1276728],[11.3855109,59.1277635],[11.3854088,59.1277298],[11.3852303,59.12767],[11.3850846,59.1276167],[11.3851101,59.1275849],[11.3852631,59.1274634]]]}},
{"type":"Feature","properties":{"id":"507","fid":null,"adresse":null,"matrikkel":null,"lopenr_1878":null,"gnr_bnr":null,"navn":null},"geometry":{"type":"Polygon","coordinates":[[[11.3845854,59.1271077],[11.3847785,59.1269506],[11.3851665,59.1270974],[11.3849643,59.1272488],[11.3845854,59.1271077]]]}},
{"type":"Feature","properties":{"id":"504","fid":null,"adresse":null,"matrikkel":null,"lopenr_1878":null,"gnr_bnr":null,"navn":null},"geometry":{"type":"Polygon","coordinates":[[[11.3847785,59.1269506],[11.3849006,59.1268469],[11.3852886,59.1269964],[11.3851665,59.1270974],[11.3847785,59.1269506]]]}},
{"type":"Feature","properties":{"id":"529","fid":null,"adresse":null,"matrikkel":null,"lopenr_1878":null,"gnr_bnr":null,"navn":null},"geometry":{"type":"Polygon","coordinates":[[[11.3855382,59.1274433],[11.3856238,59.1273816],[11.3858206,59.127232],[11.3859007,59.1271797],[11.3859445,59.1271413],[11.3859809,59.1271217],[11.3860264,59.1270843],[11.3861212,59.1270151],[11.3863471,59.126816],[11.3865165,59.1268824],[11.3862651,59.1271039],[11.3861722,59.127174],[11.3857623,59.1275246],[11.3855382,59.1274433]]]}},
{"type":"Feature","properties":{"id":"532","fid":null,"adresse":null,"matrikkel":null,"lopenr_1878":null,"gnr_bnr":null,"navn":null},"geometry":{"type":"Polygon","coordinates":[[[11.3855382,59.1274433],[11.3855182,59.1274564],[11.3853506,59.1273984],[11.3854854,59.1272787],[11.3855036,59.1272488],[11.3856821,59.1270955],[11.3859007,59.1271797],[11.3858206,59.127232],[11.3856238,59.1273816],[11.3855382,59.1274433]]]}},
{"type":"Feature","properties":{"id":"533","fid":null,"adresse":null,"matrikkel":null,"lopenr_1878":null,"gnr_bnr":null,"navn":null},"geometry":{"type":"Polygon","coordinates":[[[11.3853506,59.1273984],[11.3851233,59.127311],[11.3853018,59.1271745],[11.3855036,59.1272488],[11.3854854,59.1272787],[11.3853506,59.1273984]]]}},
{"type":"Feature","properties":{"id":"528","fid":null,"adresse":null,"matrikkel":null,"lopenr_1878":null,"gnr_bnr":null,"navn":null},"geometry":{"type":"Polygon","coordinates":[[[11.3853018,59.1271745],[11.3854876,59.1270203],[11.3856821,59.1270955],[11.3855036,59.1272488],[11.3853018,59.1271745]]]}},
{"type":"Feature","properties":{"id":"530","fid":null,"adresse":null,"matrikkel":null,"lopenr_1878":null,"gnr_bnr":null,"navn":null},"geometry":{"type":"Polygon","coordinates":[[[11.3854876,59.1270203],[11.3859007,59.1271797],[11.3859445,59.1271413],[11.3859809,59.1271217],[11.3860264,59.1270843],[11.3861212,59.1270151],[11.3856917,59.126852],[11.3854876,59.1270203]]]}},
{"type":"Feature","properties":{"id":"531","fid":null,"adresse":null,"matrikkel":null,"lopenr_1878":null,"gnr_bnr":null,"navn":null},"geometry":{"type":"Polygon","coordinates":[[[11.3856917,59.126852],[11.3859103,59.1266753],[11.3859631,59.1266706],[11.3863471,59.126816],[11.3861212,59.1270151],[11.3856917,59.126852]]]}},
{"type":"Feature","properties":{"id":"594","fid":null,"adresse":null,"matrikkel":null,"lopenr_1878":null,"gnr_bnr":null,"navn":null},"geometry":{"type":"Polygon","coordinates":[[[11.3906188,59.125604],[11.3917848,59.1258246],[11.3922548,59.126105],[11.3916099,59.126795],[11.3914933,59.1267987],[11.3914058,59.1268417],[11.3913657,59.1269015],[11.3913767,59.1269745],[11.3914131,59.1270156],[11.3907828,59.1277148],[11.3902581,59.127584],[11.3907354,59.1270137],[11.3907026,59.1269146],[11.3905714,59.1268847],[11.3905532,59.1268361],[11.3907463,59.1266342],[11.3906953,59.1266155],[11.3906844,59.1265669],[11.3908775,59.1263855],[11.3905496,59.1257666],[11.3906188,59.125604]]]}},
{"type":"Feature","properties":{"id":"595","fid":null,"adresse":null,"matrikkel":null,"lopenr_1878":null,"gnr_bnr":null,"navn":null},"geometry":{"type":"Polygon","coordinates":[[[11.3915352,59.1278382],[11.3916554,59.1277943],[11.3916846,59.1278167],[11.391741,59.1277952],[11.3918267,59.1278625],[11.3917829,59.1278831],[11.3918121,59.1279055],[11.3916882,59.1279551],[11.3916591,59.1279336],[11.3916135,59.1279504],[11.3915206,59.1278869],[11.391568,59.1278635],[11.3915352,59.1278382]]]}},
{"type":"Feature","properties":{"id":"596","fid":null,"adresse":null,"matrikkel":null,"lopenr_1878":null,"gnr_bnr":null,"navn":null},"geometry":{"type":"Polygon","coordinates":[[[11.3906297,59.1280701],[11.391169,59.1282196],[11.3914641,59.1284851],[11.3908447,59.1287469],[11.3902836,59.12853],[11.3901925,59.1284552],[11.3906297,59.1280701]]]}},
{"type":"Feature","properties":{"id":"539","fid":null,"adresse":null,"matrikkel":null,"lopenr_1878":null,"gnr_bnr":null,"navn":null},"geometry":{"type":"Polygon","coordinates":[[[11.3872703,59.1271184],[11.3871865,59.1270894],[11.3872411,59.1270418],[11.3873395,59.1270661],[11.3872703,59.1271184]]]}},
{"type":"Feature","properties":{"id":"538","fid":null,"adresse":null,"matrikkel":null,"lopenr_1878":null,"gnr_bnr":null,"navn":null},"geometry":{"type":"Polygon","coordinates":[[[11.387028,59.1270259],[11.3866144,59.1268473],[11.3866928,59.1267875],[11.3868112,59.1268417],[11.3868422,59.1268211],[11.3869752,59.1268698],[11.3869387,59.1268997],[11.38711,59.1269726],[11.387028,59.1270259]]]}},
{"type":"Feature","properties":{"id":"537","fid":null,"adresse":null,"matrikkel":null,"lopenr_1878":null,"gnr_bnr":null,"navn":null},"geometry":{"type":"Polygon","coordinates":[[[11.3866144,59.1268473],[11.386425,59.1267613],[11.3865725,59.126623],[11.3867511,59.1266865],[11.3866928,59.1267875],[11.3866144,59.1268473]]]}},
{"type":"Feature","properties":{"id":"503","fid":null,"adresse":null,"matrikkel":null,"lopenr_1878":null,"gnr_bnr":null,"navn":null},"geometry":{"type":"Polygon","coordinates":[[[11.384942,59.1268141],[11.3850531,59.1267244],[11.3854521,59.1268833],[11.3853428,59.1269628],[11.384942,59.1268141]]]}},
{"type":"Feature","properties":{"id":"502","fid":null,"adresse":null,"matrikkel":null,"lopenr_1878":null,"gnr_bnr":null,"navn":null},"geometry":{"type":"Polygon","coordinates":[[[11.3850531,59.1267244],[11.3851989,59.1266038],[11.3856124,59.1267552],[11.3854521,59.1268833],[11.3850531,59.1267244]]]}},
{"type":"Feature","properties":{"id":"501","fid":null,"adresse":null,"matrikkel":null,"lopenr_1878":null,"gnr_bnr":null,"navn":null},"geometry":{"type":"Polygon","coordinates":[[[11.3851989,59.1266038],[11.3853246,59.1265047],[11.38574,59.1266543],[11.3856124,59.1267552],[11.3851989,59.1266038]]]}},
{"type":"Feature","properties":{"id":"500","fid":null,"adresse":null,"matrikkel":null,"lopenr_1878":null,"gnr_bnr":null,"navn":null},"geometry":{"type":"Polygon","coordinates":[[[11.3853246,59.1265047],[11.3854412,59.1264131],[11.3858566,59.1265589],[11.38574,59.1266543],[11.3853246,59.1265047]]]}},
{"type":"Feature","properties":{"id":"496","fid":null,"adresse":null,"matrikkel":null,"lopenr_1878":null,"gnr_bnr":null,"navn":null},"geometry":{"type":"Polygon","coordinates":[[[11.3855141,59.1263514],[11.385873,59.1264851],[11.3860533,59.1263374],[11.3856798,59.1262027],[11.3855141,59.1263514]]]}},
{"type":"Feature","properties":{"id":"495","fid":null,"adresse":null,"matrikkel":null,"lopenr_1878":null,"gnr_bnr":null,"navn":null},"geometry":{"type":"Polygon","coordinates":[[[11.3860533,59.1263374],[11.3863885,59.1260737],[11.385995,59.1259344],[11.3856744,59.1261934],[11.3856798,59.1262027],[11.3860533,59.1263374]]]}},
{"type":"Feature","properties":{"id":"494","fid":null,"adresse":null,"matrikkel":null,"lopenr_1878":null,"gnr_bnr":null,"navn":null},"geometry":{"type":"Polygon","coordinates":[[[11.385995,59.1259344],[11.3863612,59.1256287],[11.3867784,59.1257708],[11.3863885,59.1260737],[11.385995,59.1259344]]]}},
{"type":"Feature","properties":{"id":"492","fid":null,"adresse":null,"matrikkel":null,"lopenr_1878":null,"gnr_bnr":null,"navn":null},"geometry":{"type":"Polygon","coordinates":[[[11.3863612,59.1256287],[11.3864924,59.1255137],[11.3876638,59.1258961],[11.3872247,59.1262757],[11.3864673,59.1260125],[11.3867784,59.1257708],[11.3863612,59.1256287]]]}},
{"type":"Feature","properties":{"id":"489","fid":null,"adresse":null,"matrikkel":null,"lopenr_1878":null,"gnr_bnr":null,"navn":null},"geometry":{"type":"Polygon","coordinates":[[[11.3865288,59.1254857],[11.3867165,59.1253361],[11.3872175,59.1255035],[11.3870371,59.1256474],[11.3865288,59.1254857]]]}},
{"type":"Feature","properties":{"id":"NULL541","fid":null,"adresse":null,"matrikkel":null,"lopenr_1878":null,"gnr_bnr":null,"navn":null},"geometry":{"type":"Polygon","coordinates":[[[11.3870371,59.1256474],[11.3874452,59.1257839],[11.3876146,59.125625],[11.3872175,59.1255035],[11.3870371,59.1256474]]]}},
{"type":"Feature","properties":{"id":"488","fid":null,"adresse":null,"matrikkel":null,"lopenr_1878":null,"gnr_bnr":null,"navn":null},"geometry":{"type":"Polygon","coordinates":[[[11.3867165,59.1253361],[11.3868658,59.1251828],[11.3872575,59.1252968],[11.3873067,59.1252566],[11.387917,59.1255006],[11.3878114,59.1255885],[11.3877185,59.1256166],[11.3876656,59.1256259],[11.3876146,59.125625],[11.3872175,59.1255035],[11.3867165,59.1253361]]]}},
{"type":"Feature","properties":{"id":"487","fid":null,"adresse":null,"matrikkel":null,"lopenr_1878":null,"gnr_bnr":null,"navn":null},"geometry":{"type":"Polygon","coordinates":[[[11.3868658,59.1251828],[11.386946,59.1250963],[11.3871282,59.1251477],[11.3870477,59.1252357],[11.3868658,59.1251828]]]}},
{"type":"Feature","properties":{"id":"484","fid":null,"adresse":null,"matrikkel":null,"lopenr_1878":null,"gnr_bnr":null,"navn":null},"geometry":{"type":"Polygon","coordinates":[[[11.386946,59.1250963],[11.3875399,59.124942],[11.3876274,59.1250271],[11.3871282,59.1251477],[11.386946,59.1250963]]]}},
{"type":"Feature","properties":{"id":"483","fid":null,"adresse":null,"matrikkel":null,"lopenr_1878":null,"gnr_bnr":null,"navn":null},"geometry":{"type":"Polygon","coordinates":[[[11.388234,59.125359],[11.3879753,59.1250075],[11.3875527,59.1250804],[11.3876146,59.1251337],[11.3873067,59.1252566],[11.387917,59.1255006],[11.388234,59.125359]]]}},
{"type":"Feature","properties":{"id":"568","fid":null,"adresse":null,"matrikkel":null,"lopenr_1878":null,"gnr_bnr":null,"navn":null},"geometry":{"type":"Polygon","coordinates":[[[11.3887824,59.1235046],[11.3892233,59.1239983],[11.3888006,59.1241011],[11.3883616,59.1236112],[11.3887824,59.1235046]]]}},
{"type":"Feature","properties":{"id":"572","fid":null,"adresse":null,"matrikkel":null,"lopenr_1878":null,"gnr_bnr":null,"navn":null},"geometry":{"type":"Polygon","coordinates":[[[11.3889111,59.1240742],[11.3890812,59.1242516],[11.3893982,59.1241778],[11.3892233,59.1239983],[11.3889111,59.1240742]]]}},
{"type":"Feature","properties":{"id":"573","fid":null,"adresse":null,"matrikkel":null,"lopenr_1878":null,"gnr_bnr":null,"navn":null},"geometry":{"type":"Polygon","coordinates":[[[11.3893982,59.1241778],[11.3895293,59.1243311],[11.3886203,59.1245545],[11.3885765,59.1245003],[11.3887223,59.1244666],[11.3886221,59.1243582],[11.3890812,59.1242516],[11.3893982,59.1241778]]]}},
{"type":"Feature","properties":{"id":"Paviljong","fid":null,"adresse":null,"matrikkel":null,"lopenr_1878":null,"gnr_bnr":null,"navn":null},"geometry":{"type":"Polygon","coordinates":[[[11.3880099,59.1242661],[11.3880245,59.1242138],[11.3880682,59.1241857],[11.3881375,59.124182],[11.3882249,59.1241838],[11.3882832,59.1242119],[11.3883014,59.1242586],[11.3882942,59.1242979],[11.3882031,59.1243372],[11.3881083,59.1243316],[11.38805,59.1243129],[11.3880099,59.1242661]]]}}
]
}
